name,address,postcode,latitude,longitude,imageUrl
The Forager's Year,On community gardens and allotments in Australian cities | The Forager's Year,,,,
Olive Pink Botanic Garden Landcare Group,A Central Australian Landcare Group,,,,
The rise in gardening to heal communities,Australian Botanic Garden,,-35.2777504,149.1076103,
Supporting Landcare Groups in the Territory,Supporting Landcare Groups in the Territory,,,,
Community Gardens,English (Australia),,-26.6273811,152.9667782,
Cannington Community Garden Needs You!,HealthyWA COVID-19,,,,
Inner-City Green Oasis | Discovery | Gardening Australia - YouTube,"(function(){window.yterr=window.yterr||true;window.unhandledErrorMessages={};window.unhandledErrorCount=0;
window.onerror=function(msg,url,line,columnNumber,error){var err;if(error)err=error;else{err=new Error;err.stack="""";err.message=msg;err.fileName=url;err.lineNumber=line;if(!isNaN(columnNumber))err[""columnNumber""]=columnNumber}var message=String(err.message);if(!err.message||message in window.unhandledErrorMessages||window.unhandledErrorCount>=5)return;window.unhandledErrorCount+=1;window.unhandledErrorMessages[message]=true;var img=new Image;window.emergencyTimeoutImg=img;img.onload=img.onerror=function(){delete window.emergencyTimeoutImg};
var combinedLineAndColumn=err.lineNumber;if(!isNaN(err[""columnNumber""]))combinedLineAndColumn=combinedLineAndColumn+("":""+err[""columnNumber""]);var stack=err.stack||"""";var values={""msg"":message,""type"":err.name,""client.params"":""unhandled window error"",""file"":err.fileName,""line"":combinedLineAndColumn,""stack"":stack.substr(0,500)};var thirdPartyScript=!err.fileName||err.fileName===""<anonymous>""||stack.indexOf(""extension://"")>=0;var replaced=stack.replace(/https:\/\/www.youtube.com\//g,"""");if(replaced.match(/https?:\/\/[^/]+\//))thirdPartyScript=
true;else if(stack.indexOf(""trapProp"")>=0&&stack.indexOf(""trapChain"")>=0)thirdPartyScript=true;else if(message.indexOf(""redefine non-configurable"")>=0)thirdPartyScript=true;var baseUrl=window[""ytcfg""].get(""EMERGENCY_BASE_URL"",""https://www.youtube.com/error_204?t=jserror&level=ERROR"");var unsupported=message.indexOf(""window.customElements is undefined"")>=0;if(thirdPartyScript||unsupported)baseUrl=baseUrl.replace(""level=ERROR"",""level=WARNING"");var parts=[baseUrl];var key;for(key in values){var value=
values[key];if(value)parts.push(key+""=""+encodeURIComponent(value))}img.src=parts.join(""&"")};
(function(){function _getExtendedNativePrototype(tag){var p=this._nativePrototypes[tag];if(!p){p=Object.create(this.getNativePrototype(tag));var p$=Object.getOwnPropertyNames(window[""Polymer""].Base);var i=0;var n=void 0;for(;i<p$.length&&(n=p$[i]);i++)if(!window[""Polymer""].BaseDescriptors[n])try{p[n]=window[""Polymer""].Base[n]}catch(e){throw new Error(""Error while copying property: ""+n+"". Tag is ""+tag);}try{Object.defineProperties(p,window[""Polymer""].BaseDescriptors)}catch(e){throw new Error(""Polymer define property failed for ""+
Object.keys(p));}this._nativePrototypes[tag]=p}return p}function handlePolymerError(msg){window.onerror(msg,window.location.href,0,0,new Error(Array.prototype.join.call(arguments,"","")))}var origPolymer=window[""Polymer""];var newPolymer=function(config){if(!origPolymer._ytIntercepted&&window[""Polymer""].Base){origPolymer._ytIntercepted=true;window[""Polymer""].Base._getExtendedNativePrototype=_getExtendedNativePrototype;window[""Polymer""].Base._error=handlePolymerError;window[""Polymer""].Base._warn=handlePolymerError}return origPolymer.apply(this,
arguments)};var origDescriptor=Object.getOwnPropertyDescriptor(window,""Polymer"");Object.defineProperty(window,""Polymer"",{set:function(p){if(origDescriptor&&origDescriptor.set&&origDescriptor.get){origDescriptor.set(p);origPolymer=origDescriptor.get()}else origPolymer=p;if(typeof origPolymer===""function"")Object.defineProperty(window,""Polymer"",{value:origPolymer,configurable:true,enumerable:true,writable:true})},get:function(){return typeof origPolymer===""function""?newPolymer:origPolymer},configurable:true,
enumerable:true})})();}).call(this);",,,,
"Lush community garden with footpath under a cloudy sky in Darwin, Australia","Lush community garden with footpath under a cloudy sky in Darwin, Australia Stock Photo - Alamy",,,,
Windsor Community Garden,Australia Day Awards,,,,
Tjilatjirrin Reserve Community Garden,Australian Department of Health COVID-19 website,,,,
The Mulch Pit community garden featured on Gardening Australia... | By The Mulch Pit,The Mulch Pit community garden featured on Gardening Australia... | By The Mulch Pit,,,,
Community gardens,"!function(e){var n=""https://s.go-mpulse.net/boomerang/"";if(""False""==""True"")e.BOOMR_config=e.BOOMR_config||{},e.BOOMR_config.PageParams=e.BOOMR_config.PageParams||{},e.BOOMR_config.PageParams.pci=!0,n=""https://s2.go-mpulse.net/boomerang/"";if(window.BOOMR_API_key=""UYNRY-2YMH8-7PYXA-RUTF9-QCXU8"",function(){function e(){if(!r){var e=document.createElement(""script"");e.id=""boomr-scr-as"",e.src=window.BOOMR.url,e.async=!0,o.appendChild(e),r=!0}}function t(e){r=!0;var n,t,a,i,d=document,O=window;if(window.BOOMR.snippetMethod=e?""if"":""i"",t=function(e,n){var t=d.createElement(""script"");t.id=n||""boomr-if-as"",t.src=window.BOOMR.url,BOOMR_lstart=(new Date).getTime(),e=e||d.body,e.appendChild(t)},!window.addEventListener&&window.attachEvent&&navigator.userAgent.match(/MSIE [67]\./))return window.BOOMR.snippetMethod=""s"",void t(o,""boomr-async"");a=document.createElement(""IFRAME""),a.src=""about:blank"",a.title="""",a.role=""presentation"",a.loading=""eager"",i=(a.frameElement||a).style,i.width=0,i.height=0,i.border=0,i.display=""none"",o.appendChild(a);try{O=a.contentWindow,d=O.document.open()}catch(_){n=document.domain,a.src=""javascript:var d=document.open();d.domain='""+n+""';void 0;"",O=a.contentWindow,d=O.document.open()}if(n)d._boomrl=function(){this.domain=n,t()},d.write(""<bo""+""dy onload='document._boomrl();'>"");else if(O._boomrl=function(){t()},O.addEventListener)O.addEventListener(""load"",O._boomrl,!1);else if(O.attachEvent)O.attachEvent(""onload"",O._boomrl);d.close()}function a(e){window.BOOMR_onload=e&&e.timeStamp||(new Date).getTime()}if(!window.BOOMR||!window.BOOMR.version&&!window.BOOMR.snippetExecuted){window.BOOMR=window.BOOMR||{},window.BOOMR.snippetStart=(new Date).getTime(),window.BOOMR.snippetExecuted=!0,window.BOOMR.snippetVersion=14,window.BOOMR.url=n+""UYNRY-2YMH8-7PYXA-RUTF9-QCXU8"";var i=document.currentScript||document.getElementsByTagName(""script"")[0],o=i.parentNode,r=!1,d=document.createElement(""link"");if(d.relList&&""function""==typeof d.relList.supports&&d.relList.supports(""preload"")&&""as""in d)window.BOOMR.snippetMethod=""p"",d.href=window.BOOMR.url,d.rel=""preload"",d.as=""script"",d.addEventListener(""load"",e),d.addEventListener(""error"",function(){t(!0)}),setTimeout(function(){if(!r)t(!0)},3e3),BOOMR_lstart=(new Date).getTime(),o.appendChild(d);else t(!1);if(window.addEventListener)window.addEventListener(""load"",a,!1);else if(window.attachEvent)window.attachEvent(""onload"",a)}}(),"""".length>0)if(e&&""performance""in e&&e.performance&&""function""==typeof e.performance.setResourceTimingBufferSize)e.performance.setResourceTimingBufferSize();!function(){if(BOOMR=e.BOOMR||{},BOOMR.plugins=BOOMR.plugins||{},!BOOMR.plugins.AK){var n=""""==""true""?1:0,t="""",a=""eaayaa5uaa3aaiabqaba4uppabudggtr-f-74084b42c-clienttons-s.akamaihd.net"",i=""false""==""true""?2:1,o={""ak.v"":""39"",""ak.cp"":""1820754"",""ak.ai"":parseInt(""1075936"",10),""ak.ol"":""0"",""ak.cr"":36,""ak.ipv"":6,""ak.proto"":""http/1.1"",""ak.rid"":""19aa5e79"",""ak.r"":21540,""ak.a2"":n,""ak.m"":""dscb"",""ak.n"":""essl"",""ak.bpcip"":""2001:8003:b400:3600::"",""ak.cport"":52332,""ak.gh"":""23.205.117.196"",""ak.quicv"":"""",""ak.tlsv"":""tls1.3"",""ak.0rtt"":"""",""ak.0rtt.ed"":"""",""ak.csrc"":""-"",""ak.acc"":""bbr"",""ak.t"":""1748179569"",""ak.ak"":""hOBiQwZUYzCg5VSAfCLimQ==eW1ZjdhtW/wUXEo0I4qaZQA6AOlRRJmHUrYGJ/9Hu01BEzhm3hPdokU8drvcslq6MldsiuYk39T6RO5t+g/ZYIsXFDG6RjJlhiuXoxUlrAzn4aylncWTkEaYuaFgEwfemvSkjD7V0U0IWAmzHfUiv9hf4k36YMhXVxwYHWfJTTzq2jKVgosnyUriTo5HWkW0+GhoY8zfi7fwGQJCQEwPDCpg/YyrHM2OHjoERKAJ8ko5I0IR5rFrX/6ZBPdLOutsRYCM+WUIwIk0pZ6tUCJLN71rr68uI3vQAvy/NRcsEADtV/MUdt46gcAp/YhfDmdN6EZPnRPMNOsA1UJ5dMgFo9gVV0KUVzJK8OCnPOf1E6d+sERYA/f2C9V3IQ/OVkWgGH0uYjqvzMu81xIGTOGuZZ85m1WuXCMuYajQ22Sh4ZU="",""ak.pv"":""57"",""ak.dpoabenc"":"""",""ak.tf"":i};if(""""!==t)o[""ak.ruds""]=t;var r={i:!1,av:function(n){var t=""http.initiator"";if(n&&(!n[t]||""spa_hard""===n[t]))o[""ak.feo""]=void 0!==e.aFeoApplied?1:0,BOOMR.addVar(o)},rv:function(){var e=[""ak.bpcip"",""ak.cport"",""ak.cr"",""ak.csrc"",""ak.gh"",""ak.ipv"",""ak.m"",""ak.n"",""ak.ol"",""ak.proto"",""ak.quicv"",""ak.tlsv"",""ak.0rtt"",""ak.0rtt.ed"",""ak.r"",""ak.acc"",""ak.t"",""ak.tf""];BOOMR.removeVar(e)}};BOOMR.plugins.AK={akVars:o,akDNSPreFetchDomain:a,init:function(){if(!r.i){var e=BOOMR.subscribe;e(""before_beacon"",r.av,null,null),e(""onbeacon"",r.rv,null,null),r.i=!0}return this},is_complete:function(){return!0}}}}()}(window);",,,,
About ANU,Kitchen Garden program | Australian National University,,,,
Dawn’s Japanese Zen Garden in Australia,Dawn's Japanese Zen Garden in Australia - Fine Gardening,,,,
Sowing seeds of love: Why gardening goes beyond health and wellness for Australian migrants,Sowing seeds of love: Why gardening goes beyond health and wellness for Australian migrants | SBS English,,,,
A landscape designer's stunning showcase garden | Garden Design & Inspiration | Gardening Australia - YouTube,"(function(){window.yterr=window.yterr||true;window.unhandledErrorMessages={};window.unhandledErrorCount=0;
window.onerror=function(msg,url,line,columnNumber,error){var err;if(error)err=error;else{err=new Error;err.stack="""";err.message=msg;err.fileName=url;err.lineNumber=line;if(!isNaN(columnNumber))err[""columnNumber""]=columnNumber}var message=String(err.message);if(!err.message||message in window.unhandledErrorMessages||window.unhandledErrorCount>=5)return;window.unhandledErrorCount+=1;window.unhandledErrorMessages[message]=true;var img=new Image;window.emergencyTimeoutImg=img;img.onload=img.onerror=function(){delete window.emergencyTimeoutImg};
var combinedLineAndColumn=err.lineNumber;if(!isNaN(err[""columnNumber""]))combinedLineAndColumn=combinedLineAndColumn+("":""+err[""columnNumber""]);var stack=err.stack||"""";var values={""msg"":message,""type"":err.name,""client.params"":""unhandled window error"",""file"":err.fileName,""line"":combinedLineAndColumn,""stack"":stack.substr(0,500)};var thirdPartyScript=!err.fileName||err.fileName===""<anonymous>""||stack.indexOf(""extension://"")>=0;var replaced=stack.replace(/https:\/\/www.youtube.com\//g,"""");if(replaced.match(/https?:\/\/[^/]+\//))thirdPartyScript=
true;else if(stack.indexOf(""trapProp"")>=0&&stack.indexOf(""trapChain"")>=0)thirdPartyScript=true;else if(message.indexOf(""redefine non-configurable"")>=0)thirdPartyScript=true;var baseUrl=window[""ytcfg""].get(""EMERGENCY_BASE_URL"",""https://www.youtube.com/error_204?t=jserror&level=ERROR"");var unsupported=message.indexOf(""window.customElements is undefined"")>=0;if(thirdPartyScript||unsupported)baseUrl=baseUrl.replace(""level=ERROR"",""level=WARNING"");var parts=[baseUrl];var key;for(key in values){var value=
values[key];if(value)parts.push(key+""=""+encodeURIComponent(value))}img.src=parts.join(""&"")};
(function(){function _getExtendedNativePrototype(tag){var p=this._nativePrototypes[tag];if(!p){p=Object.create(this.getNativePrototype(tag));var p$=Object.getOwnPropertyNames(window[""Polymer""].Base);var i=0;var n=void 0;for(;i<p$.length&&(n=p$[i]);i++)if(!window[""Polymer""].BaseDescriptors[n])try{p[n]=window[""Polymer""].Base[n]}catch(e){throw new Error(""Error while copying property: ""+n+"". Tag is ""+tag);}try{Object.defineProperties(p,window[""Polymer""].BaseDescriptors)}catch(e){throw new Error(""Polymer define property failed for ""+
Object.keys(p));}this._nativePrototypes[tag]=p}return p}function handlePolymerError(msg){window.onerror(msg,window.location.href,0,0,new Error(Array.prototype.join.call(arguments,"","")))}var origPolymer=window[""Polymer""];var newPolymer=function(config){if(!origPolymer._ytIntercepted&&window[""Polymer""].Base){origPolymer._ytIntercepted=true;window[""Polymer""].Base._getExtendedNativePrototype=_getExtendedNativePrototype;window[""Polymer""].Base._error=handlePolymerError;window[""Polymer""].Base._warn=handlePolymerError}return origPolymer.apply(this,
arguments)};var origDescriptor=Object.getOwnPropertyDescriptor(window,""Polymer"");Object.defineProperty(window,""Polymer"",{set:function(p){if(origDescriptor&&origDescriptor.set&&origDescriptor.get){origDescriptor.set(p);origPolymer=origDescriptor.get()}else origPolymer=p;if(typeof origPolymer===""function"")Object.defineProperty(window,""Polymer"",{value:origPolymer,configurable:true,enumerable:true,writable:true})},get:function(){return typeof origPolymer===""function""?newPolymer:origPolymer},configurable:true,
enumerable:true})})();}).call(this);",,,,
Pannawonica Community Garden,Pannawonica WA 6716,6716,116.3246073,-21.6386029,https://communitygarden.org.au/wp-content/uploads/2021/03/Pansies-and-cabbage-Barrett-House-2012-44-520x397.jpg
A tour of a spectacular hidden cottage garden | Garden Design and Inspiration | Gardening Australia - YouTube,"(function(){window.yterr=window.yterr||true;window.unhandledErrorMessages={};window.unhandledErrorCount=0;
window.onerror=function(msg,url,line,columnNumber,error){var err;if(error)err=error;else{err=new Error;err.stack="""";err.message=msg;err.fileName=url;err.lineNumber=line;if(!isNaN(columnNumber))err[""columnNumber""]=columnNumber}var message=String(err.message);if(!err.message||message in window.unhandledErrorMessages||window.unhandledErrorCount>=5)return;window.unhandledErrorCount+=1;window.unhandledErrorMessages[message]=true;var img=new Image;window.emergencyTimeoutImg=img;img.onload=img.onerror=function(){delete window.emergencyTimeoutImg};
var combinedLineAndColumn=err.lineNumber;if(!isNaN(err[""columnNumber""]))combinedLineAndColumn=combinedLineAndColumn+("":""+err[""columnNumber""]);var stack=err.stack||"""";var values={""msg"":message,""type"":err.name,""client.params"":""unhandled window error"",""file"":err.fileName,""line"":combinedLineAndColumn,""stack"":stack.substr(0,500)};var thirdPartyScript=!err.fileName||err.fileName===""<anonymous>""||stack.indexOf(""extension://"")>=0;var replaced=stack.replace(/https:\/\/www.youtube.com\//g,"""");if(replaced.match(/https?:\/\/[^/]+\//))thirdPartyScript=
true;else if(stack.indexOf(""trapProp"")>=0&&stack.indexOf(""trapChain"")>=0)thirdPartyScript=true;else if(message.indexOf(""redefine non-configurable"")>=0)thirdPartyScript=true;var baseUrl=window[""ytcfg""].get(""EMERGENCY_BASE_URL"",""https://www.youtube.com/error_204?t=jserror&level=ERROR"");var unsupported=message.indexOf(""window.customElements is undefined"")>=0;if(thirdPartyScript||unsupported)baseUrl=baseUrl.replace(""level=ERROR"",""level=WARNING"");var parts=[baseUrl];var key;for(key in values){var value=
values[key];if(value)parts.push(key+""=""+encodeURIComponent(value))}img.src=parts.join(""&"")};
(function(){function _getExtendedNativePrototype(tag){var p=this._nativePrototypes[tag];if(!p){p=Object.create(this.getNativePrototype(tag));var p$=Object.getOwnPropertyNames(window[""Polymer""].Base);var i=0;var n=void 0;for(;i<p$.length&&(n=p$[i]);i++)if(!window[""Polymer""].BaseDescriptors[n])try{p[n]=window[""Polymer""].Base[n]}catch(e){throw new Error(""Error while copying property: ""+n+"". Tag is ""+tag);}try{Object.defineProperties(p,window[""Polymer""].BaseDescriptors)}catch(e){throw new Error(""Polymer define property failed for ""+
Object.keys(p));}this._nativePrototypes[tag]=p}return p}function handlePolymerError(msg){window.onerror(msg,window.location.href,0,0,new Error(Array.prototype.join.call(arguments,"","")))}var origPolymer=window[""Polymer""];var newPolymer=function(config){if(!origPolymer._ytIntercepted&&window[""Polymer""].Base){origPolymer._ytIntercepted=true;window[""Polymer""].Base._getExtendedNativePrototype=_getExtendedNativePrototype;window[""Polymer""].Base._error=handlePolymerError;window[""Polymer""].Base._warn=handlePolymerError}return origPolymer.apply(this,
arguments)};var origDescriptor=Object.getOwnPropertyDescriptor(window,""Polymer"");Object.defineProperty(window,""Polymer"",{set:function(p){if(origDescriptor&&origDescriptor.set&&origDescriptor.get){origDescriptor.set(p);origPolymer=origDescriptor.get()}else origPolymer=p;if(typeof origPolymer===""function"")Object.defineProperty(window,""Polymer"",{value:origPolymer,configurable:true,enumerable:true,writable:true})},get:function(){return typeof origPolymer===""function""?newPolymer:origPolymer},configurable:true,
enumerable:true})})();}).call(this);",,,,
How Community Gardens Australia Helps Bring Residents Together,How Community Gardens Australia Brings People Together | CityChangers.org,,,,
UQ campus community gardens,unclear,,,,
Grenfell gardener quits RHS 'toxic relationship',Australia,,-24.7761086,134.755,
COMMUNITY GARDENS AUSTRALIA LIMITED,Details of Australian registered charities.,,,,
Townsville Community Garden,131 Robertson St Railway Estate Townsville QLD 4810,4810,146.8219327926636,-19.28489674205579,https://communitygarden.org.au/wp-content/uploads/2021/02/Townsville-Community-Garden-360x397.jpg
Avalon Community Garden,An organic vegetable garden built by the local community on Sydney's Northern Beaches.,,,,
Darwin Snake Bean Community Garden,Geranium Street Darwin NT 0820,0820,130.8376514911652,-12.445722871570485,https://communitygarden.org.au/wp-content/uploads/2021/02/Snake-Bean2-520x397.jpg
Alice Springs Community Garden,Image: Gardening Australia's Costa Georgiadis at the Alice Springs Community Garden,,,,
Community garden as a way to achieve neighborhood scaled food security,unclear,,,,
All Community Gardens in Darwin,"Community Gardens in Darwin, Northern Territory, Australia -",,,,
Community Garden,"Community Garden: Northern Kentucky University, Greater Cincinnati Region",,,,
Prospect Community Garden - Looking forward to Spring,Prospect Community Garden - Looking forward to Spring | SAcommunity - Connecting Up Australia,,,,
Humpty Doo Community Garden,Humpty Doo Village Green 85 Challoner Cct Humpty Doo NT 0836,0836,131.10239624977115,-12.579046608803381,https://communitygarden.org.au/wp-content/uploads/2021/02/humpty_doo-360x397.jpeg
Community Calendar,Community Calendar | Northern,,,,
Community Gro Garden,"1/43 Allambie Lane, Rasmussen QLD 4815",4815,146.7269825935364,-19.36425149808221,https://communitygarden.org.au/wp-content/uploads/2021/02/106345635_321378649256510_4292563971401364924_o-520x397.jpg
Home,"!function(e){var n=""https://s.go-mpulse.net/boomerang/"";if(""False""==""True"")e.BOOMR_config=e.BOOMR_config||{},e.BOOMR_config.PageParams=e.BOOMR_config.PageParams||{},e.BOOMR_config.PageParams.pci=!0,n=""https://s2.go-mpulse.net/boomerang/"";if(window.BOOMR_API_key=""UYNRY-2YMH8-7PYXA-RUTF9-QCXU8"",function(){function e(){if(!r){var e=document.createElement(""script"");e.id=""boomr-scr-as"",e.src=window.BOOMR.url,e.async=!0,o.appendChild(e),r=!0}}function t(e){r=!0;var n,t,a,i,d=document,O=window;if(window.BOOMR.snippetMethod=e?""if"":""i"",t=function(e,n){var t=d.createElement(""script"");t.id=n||""boomr-if-as"",t.src=window.BOOMR.url,BOOMR_lstart=(new Date).getTime(),e=e||d.body,e.appendChild(t)},!window.addEventListener&&window.attachEvent&&navigator.userAgent.match(/MSIE [67]\./))return window.BOOMR.snippetMethod=""s"",void t(o,""boomr-async"");a=document.createElement(""IFRAME""),a.src=""about:blank"",a.title="""",a.role=""presentation"",a.loading=""eager"",i=(a.frameElement||a).style,i.width=0,i.height=0,i.border=0,i.display=""none"",o.appendChild(a);try{O=a.contentWindow,d=O.document.open()}catch(_){n=document.domain,a.src=""javascript:var d=document.open();d.domain='""+n+""';void 0;"",O=a.contentWindow,d=O.document.open()}if(n)d._boomrl=function(){this.domain=n,t()},d.write(""<bo""+""dy onload='document._boomrl();'>"");else if(O._boomrl=function(){t()},O.addEventListener)O.addEventListener(""load"",O._boomrl,!1);else if(O.attachEvent)O.attachEvent(""onload"",O._boomrl);d.close()}function a(e){window.BOOMR_onload=e&&e.timeStamp||(new Date).getTime()}if(!window.BOOMR||!window.BOOMR.version&&!window.BOOMR.snippetExecuted){window.BOOMR=window.BOOMR||{},window.BOOMR.snippetStart=(new Date).getTime(),window.BOOMR.snippetExecuted=!0,window.BOOMR.snippetVersion=14,window.BOOMR.url=n+""UYNRY-2YMH8-7PYXA-RUTF9-QCXU8"";var i=document.currentScript||document.getElementsByTagName(""script"")[0],o=i.parentNode,r=!1,d=document.createElement(""link"");if(d.relList&&""function""==typeof d.relList.supports&&d.relList.supports(""preload"")&&""as""in d)window.BOOMR.snippetMethod=""p"",d.href=window.BOOMR.url,d.rel=""preload"",d.as=""script"",d.addEventListener(""load"",e),d.addEventListener(""error"",function(){t(!0)}),setTimeout(function(){if(!r)t(!0)},3e3),BOOMR_lstart=(new Date).getTime(),o.appendChild(d);else t(!1);if(window.addEventListener)window.addEventListener(""load"",a,!1);else if(window.attachEvent)window.attachEvent(""onload"",a)}}(),"""".length>0)if(e&&""performance""in e&&e.performance&&""function""==typeof e.performance.setResourceTimingBufferSize)e.performance.setResourceTimingBufferSize();!function(){if(BOOMR=e.BOOMR||{},BOOMR.plugins=BOOMR.plugins||{},!BOOMR.plugins.AK){var n=""""==""true""?1:0,t="""",a=""eaayaa5uaa3aaiabqaba4uppabudgffq-f-ab97c0a5f-clienttons-s.akamaihd.net"",i=""false""==""true""?2:1,o={""ak.v"":""39"",""ak.cp"":""1705708"",""ak.ai"":parseInt(""1075936"",10),""ak.ol"":""0"",""ak.cr"":36,""ak.ipv"":6,""ak.proto"":""http/1.1"",""ak.rid"":""199ea8ef"",""ak.r"":21540,""ak.a2"":n,""ak.m"":"""",""ak.n"":""essl"",""ak.bpcip"":""2001:8003:b400:3600::"",""ak.cport"":50815,""ak.gh"":""23.205.117.196"",""ak.quicv"":"""",""ak.tlsv"":""tls1.3"",""ak.0rtt"":"""",""ak.0rtt.ed"":"""",""ak.csrc"":""-"",""ak.acc"":""bbr"",""ak.t"":""1748178096"",""ak.ak"":""hOBiQwZUYzCg5VSAfCLimQ==FgATxCbKLUKbG0Rro2L1iZPWggbDRkprqcher5uMNTBgQLwSwF1KxzywZ7boFuvBIicqrzogUO288Yx87vUuxvNHjB79TeFJ/NL9spRRDTfVHFDBcPoUTWAaez2pOneUz5ie3qSy4bcGegDbqecaDSCOTzsSl/Ww2td4V0m2SRv8dSeWLPndXfBGdZ1xRuG+roJmlGZAgqpWCNcJNspIsBPdocRQLFuwy28lumdQB19o8ECXstmareyXvFN1iIpTZGscjfg0SX9mAButsIerKswGkDRjUzwy8/jd2kbiz3Sbqqqo/wQz7Kz3rRAvxGqXUK98F6ifnXcZS85y7t8KlNhG3NKgtBCtFuc5l7LB9g8Oqs4YKahd5eepTymQtOCJavq/75RGz8P5uaiWENfDhRiMPqs3yfRc5ATHsHFcosI="",""ak.pv"":""57"",""ak.dpoabenc"":"""",""ak.tf"":i};if(""""!==t)o[""ak.ruds""]=t;var r={i:!1,av:function(n){var t=""http.initiator"";if(n&&(!n[t]||""spa_hard""===n[t]))o[""ak.feo""]=void 0!==e.aFeoApplied?1:0,BOOMR.addVar(o)},rv:function(){var e=[""ak.bpcip"",""ak.cport"",""ak.cr"",""ak.csrc"",""ak.gh"",""ak.ipv"",""ak.m"",""ak.n"",""ak.ol"",""ak.proto"",""ak.quicv"",""ak.tlsv"",""ak.0rtt"",""ak.0rtt.ed"",""ak.r"",""ak.acc"",""ak.t"",""ak.tf""];BOOMR.removeVar(e)}};BOOMR.plugins.AK={akVars:o,akDNSPreFetchDomain:a,init:function(){if(!r.i){var e=BOOMR.subscribe;e(""before_beacon"",r.av,null,null),e(""onbeacon"",r.rv,null,null),r.i=!0}return this},is_complete:function(){return!0}}}}()}(window);",,,,
Foodwise Articles,REDUCE FOOD WASTE,,,,
Alice Springs Community Garden,Burke St Alice Springs NT 0810,0810,133.89596956817257,-23.691197467024942,https://communitygarden.org.au/wp-content/uploads/2021/03/Alice-Springs3-520x397.jpg
Community Gardens,Museum of Australian Photography,,-37.9077439,145.1902768,
Yuraal – Community Garden – Native Bee Project,Australian Native Bees | News & Info,,,,
North Perth Community Garden,Australian Access Awards Winner 2019,,,,
Community Gardens Australia - YouTube,"(function(){window.yterr=window.yterr||true;window.unhandledErrorMessages={};window.unhandledErrorCount=0;
window.onerror=function(msg,url,line,columnNumber,error){var err;if(error)err=error;else{err=new Error;err.stack="""";err.message=msg;err.fileName=url;err.lineNumber=line;if(!isNaN(columnNumber))err[""columnNumber""]=columnNumber}var message=String(err.message);if(!err.message||message in window.unhandledErrorMessages||window.unhandledErrorCount>=5)return;window.unhandledErrorCount+=1;window.unhandledErrorMessages[message]=true;var img=new Image;window.emergencyTimeoutImg=img;img.onload=img.onerror=function(){delete window.emergencyTimeoutImg};
var combinedLineAndColumn=err.lineNumber;if(!isNaN(err[""columnNumber""]))combinedLineAndColumn=combinedLineAndColumn+("":""+err[""columnNumber""]);var stack=err.stack||"""";var values={""msg"":message,""type"":err.name,""client.params"":""unhandled window error"",""file"":err.fileName,""line"":combinedLineAndColumn,""stack"":stack.substr(0,500)};var thirdPartyScript=!err.fileName||err.fileName===""<anonymous>""||stack.indexOf(""extension://"")>=0;var replaced=stack.replace(/https:\/\/www.youtube.com\//g,"""");if(replaced.match(/https?:\/\/[^/]+\//))thirdPartyScript=
true;else if(stack.indexOf(""trapProp"")>=0&&stack.indexOf(""trapChain"")>=0)thirdPartyScript=true;else if(message.indexOf(""redefine non-configurable"")>=0)thirdPartyScript=true;var baseUrl=window[""ytcfg""].get(""EMERGENCY_BASE_URL"",""https://www.youtube.com/error_204?t=jserror&level=ERROR"");var unsupported=message.indexOf(""window.customElements is undefined"")>=0;if(thirdPartyScript||unsupported)baseUrl=baseUrl.replace(""level=ERROR"",""level=WARNING"");var parts=[baseUrl];var key;for(key in values){var value=
values[key];if(value)parts.push(key+""=""+encodeURIComponent(value))}img.src=parts.join(""&"")};
(function(){function _getExtendedNativePrototype(tag){var p=this._nativePrototypes[tag];if(!p){p=Object.create(this.getNativePrototype(tag));var p$=Object.getOwnPropertyNames(window[""Polymer""].Base);var i=0;var n=void 0;for(;i<p$.length&&(n=p$[i]);i++)if(!window[""Polymer""].BaseDescriptors[n])try{p[n]=window[""Polymer""].Base[n]}catch(e){throw new Error(""Error while copying property: ""+n+"". Tag is ""+tag);}try{Object.defineProperties(p,window[""Polymer""].BaseDescriptors)}catch(e){throw new Error(""Polymer define property failed for ""+
Object.keys(p));}this._nativePrototypes[tag]=p}return p}function handlePolymerError(msg){window.onerror(msg,window.location.href,0,0,new Error(Array.prototype.join.call(arguments,"","")))}var origPolymer=window[""Polymer""];var newPolymer=function(config){if(!origPolymer._ytIntercepted&&window[""Polymer""].Base){origPolymer._ytIntercepted=true;window[""Polymer""].Base._getExtendedNativePrototype=_getExtendedNativePrototype;window[""Polymer""].Base._error=handlePolymerError;window[""Polymer""].Base._warn=handlePolymerError}return origPolymer.apply(this,
arguments)};var origDescriptor=Object.getOwnPropertyDescriptor(window,""Polymer"");Object.defineProperty(window,""Polymer"",{set:function(p){if(origDescriptor&&origDescriptor.set&&origDescriptor.get){origDescriptor.set(p);origPolymer=origDescriptor.get()}else origPolymer=p;if(typeof origPolymer===""function"")Object.defineProperty(window,""Polymer"",{value:origPolymer,configurable:true,enumerable:true,writable:true})},get:function(){return typeof origPolymer===""function""?newPolymer:origPolymer},configurable:true,
enumerable:true})})();}).call(this);",,,,
‘You don’t know what you’re missing out on’: Meet Australia’s new Mrs Thrifty,"{""@context"":""http://schema.org"",""@type"":""NewsArticle"",""author"":{""@type"":""Person"",""name"":""Andrew Hornery""},""dateModified"":""2025-05-22T19:00:00+00:00"",""datePublished"":""2025-05-22T19:00:00+00:00"",""description"":""There’s a new generation of people finding fresh reasons to preserve their homegrown food."",""headline"":""‘You don’t know what you’re missing out on’: Meet Australia’s new Mrs Thrifty"",""image"":{""@type"":""ImageObject"",""height"":450,""url"":""https://static.ffx.io/images/$zoom_0.1765%2C$multiply_0.7554%2C$ratio_1.776846%2C$width_1059%2C$x_0%2C$y_110/t_crop_custom/q_86%2Cf_auto/0f2cf8c181f02e74269f725cb1611d8d2c19887c"",""width"":800},""keywords"":"""",""mainEntityOfPage"":{""@id"":""https://www.smh.com.au/national/you-don-t-know-what-you-re-missing-out-on-meet-australia-s-new-mrs-thrifty-20250428-p5luor.html"",""@type"":""WebPage""},""publisher"":{""@type"":""Organization"",""logo"":{""@type"":""ImageObject"",""height"":""628"",""url"":""https://www.smh.com.au/smh.png"",""width"":""1200""},""name"":""The Sydney Morning Herald""},""isAccessibleForFree"":false,""hasPart"":{""@type"":""WebPageElement"",""isAccessibleForFree"":false,""cssSelector"":"".paywall""},""isPartOf"":{""@type"":[""CreativeWork"",""Product""],""name"":""The Sydney Morning Herald"",""productID"":""smh.com.au:webonly""}}",,,,
Community Gardens,"NTcommunity acknowledge the Traditional Owners of country throughout the Northern Territory and recognise their continuing connection to land, waters and culture. We pay our respects to their Elders past, present and emerging. Aboriginal sovereignty has not been ceded.",,,,
Community Gardens– an introduction,GROWING YOUR OWN fresh food in your local community garden is a new way to healthy eating practised by increasing numbers of Australians.,,,,
Community gardens,"We pay our respect to all First Nations elders both past and
            present from the lands where Charles Sturt University students reside. In particular, we acknowledge the Wiradjuri,
            Ngunawal, Gundungurra, and Birpai peoples of Australia, who are the traditional custodians of the land
            where Charles Sturt University campuses are located.",,,,
Lupton Park Community Garden,45 Aberdeen Avenue Maryborough QLD 4650,4650,152.68507966203336,-25.5182684861274,https://communitygarden.org.au/wp-content/uploads/2021/02/lupton-480x397.jpg
A garden project fostering inclusive community connection | Garden Inspiration | Gardening Australia - YouTube,"(function(){window.yterr=window.yterr||true;window.unhandledErrorMessages={};window.unhandledErrorCount=0;
window.onerror=function(msg,url,line,columnNumber,error){var err;if(error)err=error;else{err=new Error;err.stack="""";err.message=msg;err.fileName=url;err.lineNumber=line;if(!isNaN(columnNumber))err[""columnNumber""]=columnNumber}var message=String(err.message);if(!err.message||message in window.unhandledErrorMessages||window.unhandledErrorCount>=5)return;window.unhandledErrorCount+=1;window.unhandledErrorMessages[message]=true;var img=new Image;window.emergencyTimeoutImg=img;img.onload=img.onerror=function(){delete window.emergencyTimeoutImg};
var combinedLineAndColumn=err.lineNumber;if(!isNaN(err[""columnNumber""]))combinedLineAndColumn=combinedLineAndColumn+("":""+err[""columnNumber""]);var stack=err.stack||"""";var values={""msg"":message,""type"":err.name,""client.params"":""unhandled window error"",""file"":err.fileName,""line"":combinedLineAndColumn,""stack"":stack.substr(0,500)};var thirdPartyScript=!err.fileName||err.fileName===""<anonymous>""||stack.indexOf(""extension://"")>=0;var replaced=stack.replace(/https:\/\/www.youtube.com\//g,"""");if(replaced.match(/https?:\/\/[^/]+\//))thirdPartyScript=
true;else if(stack.indexOf(""trapProp"")>=0&&stack.indexOf(""trapChain"")>=0)thirdPartyScript=true;else if(message.indexOf(""redefine non-configurable"")>=0)thirdPartyScript=true;var baseUrl=window[""ytcfg""].get(""EMERGENCY_BASE_URL"",""https://www.youtube.com/error_204?t=jserror&level=ERROR"");var unsupported=message.indexOf(""window.customElements is undefined"")>=0;if(thirdPartyScript||unsupported)baseUrl=baseUrl.replace(""level=ERROR"",""level=WARNING"");var parts=[baseUrl];var key;for(key in values){var value=
values[key];if(value)parts.push(key+""=""+encodeURIComponent(value))}img.src=parts.join(""&"")};
(function(){function _getExtendedNativePrototype(tag){var p=this._nativePrototypes[tag];if(!p){p=Object.create(this.getNativePrototype(tag));var p$=Object.getOwnPropertyNames(window[""Polymer""].Base);var i=0;var n=void 0;for(;i<p$.length&&(n=p$[i]);i++)if(!window[""Polymer""].BaseDescriptors[n])try{p[n]=window[""Polymer""].Base[n]}catch(e){throw new Error(""Error while copying property: ""+n+"". Tag is ""+tag);}try{Object.defineProperties(p,window[""Polymer""].BaseDescriptors)}catch(e){throw new Error(""Polymer define property failed for ""+
Object.keys(p));}this._nativePrototypes[tag]=p}return p}function handlePolymerError(msg){window.onerror(msg,window.location.href,0,0,new Error(Array.prototype.join.call(arguments,"","")))}var origPolymer=window[""Polymer""];var newPolymer=function(config){if(!origPolymer._ytIntercepted&&window[""Polymer""].Base){origPolymer._ytIntercepted=true;window[""Polymer""].Base._getExtendedNativePrototype=_getExtendedNativePrototype;window[""Polymer""].Base._error=handlePolymerError;window[""Polymer""].Base._warn=handlePolymerError}return origPolymer.apply(this,
arguments)};var origDescriptor=Object.getOwnPropertyDescriptor(window,""Polymer"");Object.defineProperty(window,""Polymer"",{set:function(p){if(origDescriptor&&origDescriptor.set&&origDescriptor.get){origDescriptor.set(p);origPolymer=origDescriptor.get()}else origPolymer=p;if(typeof origPolymer===""function"")Object.defineProperty(window,""Polymer"",{value:origPolymer,configurable:true,enumerable:true,writable:true})},get:function(){return typeof origPolymer===""function""?newPolymer:origPolymer},configurable:true,
enumerable:true})})();}).call(this);",,,,
A Systematic Review Protocol to Identify the Key Benefits and Associated Program Characteristics of Community Gardening for Vulnerable Populations,"Centre for Educational Research, Translational Health Research Institute, Western Sydney University, Sydney, NSW 2751, Australia",,,,
Nature Trails for Wellness | Discovery | Gardening Australia - YouTube,"(function(){window.yterr=window.yterr||true;window.unhandledErrorMessages={};window.unhandledErrorCount=0;
window.onerror=function(msg,url,line,columnNumber,error){var err;if(error)err=error;else{err=new Error;err.stack="""";err.message=msg;err.fileName=url;err.lineNumber=line;if(!isNaN(columnNumber))err[""columnNumber""]=columnNumber}var message=String(err.message);if(!err.message||message in window.unhandledErrorMessages||window.unhandledErrorCount>=5)return;window.unhandledErrorCount+=1;window.unhandledErrorMessages[message]=true;var img=new Image;window.emergencyTimeoutImg=img;img.onload=img.onerror=function(){delete window.emergencyTimeoutImg};
var combinedLineAndColumn=err.lineNumber;if(!isNaN(err[""columnNumber""]))combinedLineAndColumn=combinedLineAndColumn+("":""+err[""columnNumber""]);var stack=err.stack||"""";var values={""msg"":message,""type"":err.name,""client.params"":""unhandled window error"",""file"":err.fileName,""line"":combinedLineAndColumn,""stack"":stack.substr(0,500)};var thirdPartyScript=!err.fileName||err.fileName===""<anonymous>""||stack.indexOf(""extension://"")>=0;var replaced=stack.replace(/https:\/\/www.youtube.com\//g,"""");if(replaced.match(/https?:\/\/[^/]+\//))thirdPartyScript=
true;else if(stack.indexOf(""trapProp"")>=0&&stack.indexOf(""trapChain"")>=0)thirdPartyScript=true;else if(message.indexOf(""redefine non-configurable"")>=0)thirdPartyScript=true;var baseUrl=window[""ytcfg""].get(""EMERGENCY_BASE_URL"",""https://www.youtube.com/error_204?t=jserror&level=ERROR"");var unsupported=message.indexOf(""window.customElements is undefined"")>=0;if(thirdPartyScript||unsupported)baseUrl=baseUrl.replace(""level=ERROR"",""level=WARNING"");var parts=[baseUrl];var key;for(key in values){var value=
values[key];if(value)parts.push(key+""=""+encodeURIComponent(value))}img.src=parts.join(""&"")};
(function(){function _getExtendedNativePrototype(tag){var p=this._nativePrototypes[tag];if(!p){p=Object.create(this.getNativePrototype(tag));var p$=Object.getOwnPropertyNames(window[""Polymer""].Base);var i=0;var n=void 0;for(;i<p$.length&&(n=p$[i]);i++)if(!window[""Polymer""].BaseDescriptors[n])try{p[n]=window[""Polymer""].Base[n]}catch(e){throw new Error(""Error while copying property: ""+n+"". Tag is ""+tag);}try{Object.defineProperties(p,window[""Polymer""].BaseDescriptors)}catch(e){throw new Error(""Polymer define property failed for ""+
Object.keys(p));}this._nativePrototypes[tag]=p}return p}function handlePolymerError(msg){window.onerror(msg,window.location.href,0,0,new Error(Array.prototype.join.call(arguments,"","")))}var origPolymer=window[""Polymer""];var newPolymer=function(config){if(!origPolymer._ytIntercepted&&window[""Polymer""].Base){origPolymer._ytIntercepted=true;window[""Polymer""].Base._getExtendedNativePrototype=_getExtendedNativePrototype;window[""Polymer""].Base._error=handlePolymerError;window[""Polymer""].Base._warn=handlePolymerError}return origPolymer.apply(this,
arguments)};var origDescriptor=Object.getOwnPropertyDescriptor(window,""Polymer"");Object.defineProperty(window,""Polymer"",{set:function(p){if(origDescriptor&&origDescriptor.set&&origDescriptor.get){origDescriptor.set(p);origPolymer=origDescriptor.get()}else origPolymer=p;if(typeof origPolymer===""function"")Object.defineProperty(window,""Polymer"",{value:origPolymer,configurable:true,enumerable:true,writable:true})},get:function(){return typeof origPolymer===""function""?newPolymer:origPolymer},configurable:true,
enumerable:true})})();}).call(this);",,,,
"“You feel like you’re part of something bigger”: exploring motivations for community garden participation in Melbourne, Australia","“You feel like you’re part of something bigger”: exploring motivations for community garden participation in Melbourne, Australia | BMC Public Health | Full Text",,,,
"Lincoln Community Garden
 - Sustainability Hub for Innovation & Environment",Northern Michigan University,,46.5613243,-87.4104811,
Find a Community Garden,"Community gardens are places where people come together to grow some of the food their families eat and to enjoy the conviviality of good company. The gardens are found across Australia in big cities and country towns, in public parks and school grounds, and in other places. They offer fresh food and learning at the same time as they create a sense of place close to where the gardeners live.",,,,
Darwin Snake Bean Community Garden,Darwin Snake Bean Community Garden › Community Gardens Australia,,,,
Converting an unused public space into a community farm | Garden Inspiration | Gardening Australia - YouTube,"(function(){window.yterr=window.yterr||true;window.unhandledErrorMessages={};window.unhandledErrorCount=0;
window.onerror=function(msg,url,line,columnNumber,error){var err;if(error)err=error;else{err=new Error;err.stack="""";err.message=msg;err.fileName=url;err.lineNumber=line;if(!isNaN(columnNumber))err[""columnNumber""]=columnNumber}var message=String(err.message);if(!err.message||message in window.unhandledErrorMessages||window.unhandledErrorCount>=5)return;window.unhandledErrorCount+=1;window.unhandledErrorMessages[message]=true;var img=new Image;window.emergencyTimeoutImg=img;img.onload=img.onerror=function(){delete window.emergencyTimeoutImg};
var combinedLineAndColumn=err.lineNumber;if(!isNaN(err[""columnNumber""]))combinedLineAndColumn=combinedLineAndColumn+("":""+err[""columnNumber""]);var stack=err.stack||"""";var values={""msg"":message,""type"":err.name,""client.params"":""unhandled window error"",""file"":err.fileName,""line"":combinedLineAndColumn,""stack"":stack.substr(0,500)};var thirdPartyScript=!err.fileName||err.fileName===""<anonymous>""||stack.indexOf(""extension://"")>=0;var replaced=stack.replace(/https:\/\/www.youtube.com\//g,"""");if(replaced.match(/https?:\/\/[^/]+\//))thirdPartyScript=
true;else if(stack.indexOf(""trapProp"")>=0&&stack.indexOf(""trapChain"")>=0)thirdPartyScript=true;else if(message.indexOf(""redefine non-configurable"")>=0)thirdPartyScript=true;var baseUrl=window[""ytcfg""].get(""EMERGENCY_BASE_URL"",""https://www.youtube.com/error_204?t=jserror&level=ERROR"");var unsupported=message.indexOf(""window.customElements is undefined"")>=0;if(thirdPartyScript||unsupported)baseUrl=baseUrl.replace(""level=ERROR"",""level=WARNING"");var parts=[baseUrl];var key;for(key in values){var value=
values[key];if(value)parts.push(key+""=""+encodeURIComponent(value))}img.src=parts.join(""&"")};
(function(){function _getExtendedNativePrototype(tag){var p=this._nativePrototypes[tag];if(!p){p=Object.create(this.getNativePrototype(tag));var p$=Object.getOwnPropertyNames(window[""Polymer""].Base);var i=0;var n=void 0;for(;i<p$.length&&(n=p$[i]);i++)if(!window[""Polymer""].BaseDescriptors[n])try{p[n]=window[""Polymer""].Base[n]}catch(e){throw new Error(""Error while copying property: ""+n+"". Tag is ""+tag);}try{Object.defineProperties(p,window[""Polymer""].BaseDescriptors)}catch(e){throw new Error(""Polymer define property failed for ""+
Object.keys(p));}this._nativePrototypes[tag]=p}return p}function handlePolymerError(msg){window.onerror(msg,window.location.href,0,0,new Error(Array.prototype.join.call(arguments,"","")))}var origPolymer=window[""Polymer""];var newPolymer=function(config){if(!origPolymer._ytIntercepted&&window[""Polymer""].Base){origPolymer._ytIntercepted=true;window[""Polymer""].Base._getExtendedNativePrototype=_getExtendedNativePrototype;window[""Polymer""].Base._error=handlePolymerError;window[""Polymer""].Base._warn=handlePolymerError}return origPolymer.apply(this,
arguments)};var origDescriptor=Object.getOwnPropertyDescriptor(window,""Polymer"");Object.defineProperty(window,""Polymer"",{set:function(p){if(origDescriptor&&origDescriptor.set&&origDescriptor.get){origDescriptor.set(p);origPolymer=origDescriptor.get()}else origPolymer=p;if(typeof origPolymer===""function"")Object.defineProperty(window,""Polymer"",{value:origPolymer,configurable:true,enumerable:true,writable:true})},get:function(){return typeof origPolymer===""function""?newPolymer:origPolymer},configurable:true,
enumerable:true})})();}).call(this);",,,,
New research reveals the extraordinary benefits of community gard,Australian Botanic Garden,,-35.2777504,149.1076103,
Westside Community Garden Alice (Mparntwe),Between Milner Rd & Memorial Ave Gillen - Alice Springs NT 0871,0871,133.866096,-23.710355,https://communitygarden.org.au/wp-content/uploads/2021/10/Kaz-PaolaArch-3-520x397.jpg
Community Gardens Conversations,"{""@context"":""https://schema.org"",""@graph"":[{""@type"":""WebPage"",""@id"":""https://carersqld.com.au/ndis/inclusion-projects/community-gardens-conversations/"",""url"":""https://carersqld.com.au/ndis/inclusion-projects/community-gardens-conversations/"",""name"":""Community Gardens Conversations - Carers Queensland"",""isPartOf"":{""@id"":""https://carersqld.com.au/#website""},""primaryImageOfPage"":{""@id"":""https://carersqld.com.au/ndis/inclusion-projects/community-gardens-conversations/#primaryimage""},""image"":{""@id"":""https://carersqld.com.au/ndis/inclusion-projects/community-gardens-conversations/#primaryimage""},""thumbnailUrl"":""https://carersqld.com.au/wp-content/uploads/converted-ndis-22.jpg"",""datePublished"":""2022-04-07T02:30:13+00:00"",""dateModified"":""2025-04-01T05:07:22+00:00"",""breadcrumb"":{""@id"":""https://carersqld.com.au/ndis/inclusion-projects/community-gardens-conversations/#breadcrumb""},""inLanguage"":""en-AU"",""potentialAction"":[{""@type"":""ReadAction"",""target"":[""https://carersqld.com.au/ndis/inclusion-projects/community-gardens-conversations/""]}]},{""@type"":""ImageObject"",""inLanguage"":""en-AU"",""@id"":""https://carersqld.com.au/ndis/inclusion-projects/community-gardens-conversations/#primaryimage"",""url"":""https://carersqld.com.au/wp-content/uploads/converted-ndis-22.jpg"",""contentUrl"":""https://carersqld.com.au/wp-content/uploads/converted-ndis-22.jpg"",""width"":1534,""height"":2045},{""@type"":""BreadcrumbList"",""@id"":""https://carersqld.com.au/ndis/inclusion-projects/community-gardens-conversations/#breadcrumb"",""itemListElement"":[{""@type"":""ListItem"",""position"":1,""name"":""Home"",""item"":""https://carersqld.com.au/""},{""@type"":""ListItem"",""position"":2,""name"":""NDIS local area coordination partner in the community program"",""item"":""https://carersqld.com.au/ndis/""},{""@type"":""ListItem"",""position"":3,""name"":""Driving Inclusive Change"",""item"":""https://carersqld.com.au/ndis/inclusion-projects/""},{""@type"":""ListItem"",""position"":4,""name"":""Community Gardens Conversations""}]},{""@type"":""WebSite"",""@id"":""https://carersqld.com.au/#website"",""url"":""https://carersqld.com.au/"",""name"":""Carers Queensland"",""description"":""Making life better."",""publisher"":{""@id"":""https://carersqld.com.au/#organization""},""potentialAction"":[{""@type"":""SearchAction"",""target"":{""@type"":""EntryPoint"",""urlTemplate"":""https://carersqld.com.au/?s={search_term_string}""},""query-input"":{""@type"":""PropertyValueSpecification"",""valueRequired"":true,""valueName"":""search_term_string""}}],""inLanguage"":""en-AU""},{""@type"":""Organization"",""@id"":""https://carersqld.com.au/#organization"",""name"":""Carers Queensland"",""url"":""https://carersqld.com.au/"",""logo"":{""@type"":""ImageObject"",""inLanguage"":""en-AU"",""@id"":""https://carersqld.com.au/#/schema/logo/image/"",""url"":""https://carersqld.com.au/wp-content/uploads/Carers-Queensland-Logo.png"",""contentUrl"":""https://carersqld.com.au/wp-content/uploads/Carers-Queensland-Logo.png"",""width"":244,""height"":59,""caption"":""Carers Queensland""},""image"":{""@id"":""https://carersqld.com.au/#/schema/logo/image/""},""sameAs"":[""https://www.facebook.com/carersqueensland/"",""https://x.com/CarersQLD"",""https://twitter.com/CarersQLD"",""https://www.linkedin.com/company/carers-queensland-inc-""]}]}",,,,
Australia Post delivers in cost-of-living fallout,"Australia Post delivers in cost-of-living fallout | The Express Newspaper | Local News covering Sport, Agricultural, Entertainment, Community & Business News for Mareeba, Atherton, Cooktown, Kuranda, the Tablelands & Far North Queensland Australia.",,,,
Find a garden › Community Gardens Australia,Find a garden › Community Gardens Australia,,,,
Garden of                                                                                                   Hope,Garden of Hope  | The Salvation Army Australia,,,,
Community Gardens,TropEco - Community Gardens - JCU Australia,,,,
Glen Forrest Community Garden,Glen Forrest Community Garden | Community Garden in Glen Forrest Western Australia,,,,
New community garden for Atherton,"New community garden for Atherton | The Express Newspaper | Local News covering Sport, Agricultural, Entertainment, Community & Business News for Mareeba, Atherton, Cooktown, Kuranda, the Tablelands & Far North Queensland Australia.",,,,
Gardening and food production,"awards community-based grants on behalf of Australian Government departments, agencies and organisations.",,,,
Community gardens,"from Sustainable Gardening Australia, the City of Sydney's",,,,
Smokva Community Garden,"Wickham, NSW, Australia",,-32.9233333,151.7594444,
Jack’s Paddock,Ross St Yeppoon Qld 4703,4703,150.7402915,-23.1232716,https://communitygarden.org.au/wp-content/uploads/2023/02/jacks-paddock-520x397.jpg
Community gardens - Local Food Coalition,Australian Ex-Prisoners of War Memorial Commemorative Service,,,,
Epic COMMUNITY GARDEN tour! Maralinga Community Garden - Keysborough Melbourne - Gardening Australia - YouTube,"(function(){window.yterr=window.yterr||true;window.unhandledErrorMessages={};window.unhandledErrorCount=0;
window.onerror=function(msg,url,line,columnNumber,error){var err;if(error)err=error;else{err=new Error;err.stack="""";err.message=msg;err.fileName=url;err.lineNumber=line;if(!isNaN(columnNumber))err[""columnNumber""]=columnNumber}var message=String(err.message);if(!err.message||message in window.unhandledErrorMessages||window.unhandledErrorCount>=5)return;window.unhandledErrorCount+=1;window.unhandledErrorMessages[message]=true;var img=new Image;window.emergencyTimeoutImg=img;img.onload=img.onerror=function(){delete window.emergencyTimeoutImg};
var combinedLineAndColumn=err.lineNumber;if(!isNaN(err[""columnNumber""]))combinedLineAndColumn=combinedLineAndColumn+("":""+err[""columnNumber""]);var stack=err.stack||"""";var values={""msg"":message,""type"":err.name,""client.params"":""unhandled window error"",""file"":err.fileName,""line"":combinedLineAndColumn,""stack"":stack.substr(0,500)};var thirdPartyScript=!err.fileName||err.fileName===""<anonymous>""||stack.indexOf(""extension://"")>=0;var replaced=stack.replace(/https:\/\/www.youtube.com\//g,"""");if(replaced.match(/https?:\/\/[^/]+\//))thirdPartyScript=
true;else if(stack.indexOf(""trapProp"")>=0&&stack.indexOf(""trapChain"")>=0)thirdPartyScript=true;else if(message.indexOf(""redefine non-configurable"")>=0)thirdPartyScript=true;var baseUrl=window[""ytcfg""].get(""EMERGENCY_BASE_URL"",""https://www.youtube.com/error_204?t=jserror&level=ERROR"");var unsupported=message.indexOf(""window.customElements is undefined"")>=0;if(thirdPartyScript||unsupported)baseUrl=baseUrl.replace(""level=ERROR"",""level=WARNING"");var parts=[baseUrl];var key;for(key in values){var value=
values[key];if(value)parts.push(key+""=""+encodeURIComponent(value))}img.src=parts.join(""&"")};
(function(){function _getExtendedNativePrototype(tag){var p=this._nativePrototypes[tag];if(!p){p=Object.create(this.getNativePrototype(tag));var p$=Object.getOwnPropertyNames(window[""Polymer""].Base);var i=0;var n=void 0;for(;i<p$.length&&(n=p$[i]);i++)if(!window[""Polymer""].BaseDescriptors[n])try{p[n]=window[""Polymer""].Base[n]}catch(e){throw new Error(""Error while copying property: ""+n+"". Tag is ""+tag);}try{Object.defineProperties(p,window[""Polymer""].BaseDescriptors)}catch(e){throw new Error(""Polymer define property failed for ""+
Object.keys(p));}this._nativePrototypes[tag]=p}return p}function handlePolymerError(msg){window.onerror(msg,window.location.href,0,0,new Error(Array.prototype.join.call(arguments,"","")))}var origPolymer=window[""Polymer""];var newPolymer=function(config){if(!origPolymer._ytIntercepted&&window[""Polymer""].Base){origPolymer._ytIntercepted=true;window[""Polymer""].Base._getExtendedNativePrototype=_getExtendedNativePrototype;window[""Polymer""].Base._error=handlePolymerError;window[""Polymer""].Base._warn=handlePolymerError}return origPolymer.apply(this,
arguments)};var origDescriptor=Object.getOwnPropertyDescriptor(window,""Polymer"");Object.defineProperty(window,""Polymer"",{set:function(p){if(origDescriptor&&origDescriptor.set&&origDescriptor.get){origDescriptor.set(p);origPolymer=origDescriptor.get()}else origPolymer=p;if(typeof origPolymer===""function"")Object.defineProperty(window,""Polymer"",{value:origPolymer,configurable:true,enumerable:true,writable:true})},get:function(){return typeof origPolymer===""function""?newPolymer:origPolymer},configurable:true,
enumerable:true})})();}).call(this);",,,,
Crowds forecast for Edible Gardens Festival,"Explore gardens at Margaret River's Edible Fest | Augusta-Margaret River Mail | Margaret River, WA",,,,
Community garden started by refugees in Adelaide attracting interstate interest,"{""@context"":""http://schema.org"",""@type"":""NewsArticle"",""author"":[{""@type"":""Person"",""name"":""Claire Campbell"",""url"":""https://www.abc.net.au/news/claire-campbell/7195908""}],""dateModified"":""2020-05-05T23:44:42+00:00"",""datePublished"":""2020-05-05T23:44:42+00:00"",""description"":""An Adelaide community garden started as a hobby by a group of refugees wanting to grow vegetables from Africa and Asia is now proving so popular its produce is being sought interstate."",""headline"":""Community garden started by refugees in Adelaide attracting interstate interest"",""image"":{""@type"":""ImageObject"",""height"":485,""url"":""https://live-production.wcms.abc-cdn.net.au/804ca9889d5ff64e665a3930e6cefd47?impolicy=wcms_crop_resize&cropH=1689&cropW=3000&xPos=0&yPos=342&width=862&height=485"",""width"":862},""keywords"":""community,garden,adelaide,northern suburbs,davoren park,maize,vegatables,herbs,african refugees,popular,interstate,coronavirus"",""mainEntityOfPage"":""https://www.abc.net.au/news/2020-05-06/refugee-community-garden-growing-rare-vegetables-in-adelaide/12217592"",""publisher"":{""@type"":""NewsMediaOrganization"",""name"":""ABC News"",""alternateName"":[""ABCNews"",""A B C News"",""abc news""],""url"":""https://www.abc.net.au/news"",""sameAs"":[""https://en.wikipedia.org/wiki/ABC_News_(Australia)"",""https://twitter.com/abcnews"",""https://www.facebook.com/abcnews.au/""],""logo"":{""@type"":""ImageObject"",""height"":60,""url"":""https://www.abc.net.au/res/abc/logos/amp-news-logo-60x240.png"",""width"":240}}}",,,,
"$11,000 of equipment stolen from community garden at Manurewa High School in South Auckland","[{""@context"":""http://schema.org"",""@type"":""VideoObject"",""name"":""Russia's Ukraine Incursion, Wellington Water Scandal and Cyclone Alfred | NZ Herald News Update"",""description"":""Russia increases its Ukraine offensive, Wellington Water faces scrutiny, and Cyclone Alfred triggers insurance chaos in Australia."",""uploadDate"":""2025-03-10T07:37:00+13:00"",""thumbnailUrl"":""https://www.nzherald.co.nz/resizer/v2/V37KP5NVFBBMZNWBGAXZ5V4ZWE.jpg?auth=a00cd023f4b85db8a61dcfae1bb98bb6431689fcb5cbbcf8c53b46fa21417f2b&width=1200&height=675&quality=70&smart=true"",""embedUrl"":""https://players.brightcove.net/1308227299001/enb45B5M4_default/index.html?videoId=6369817916112"",""duration"":null,""keywords"":""Ukraine, NZ Herald Bulletin, NZ Herald Bulletin, Russia-Ukraine War"",""isAccessibleForFree"":""true""}]",,,,
The Big10K Project to help Aussie gardeners,"{""@context"":""https:\/\/schema.org"",""@graph"":[{""@type"":""BreadcrumbList"",""@id"":""https:\/\/www.sgaonline.org.au\/#breadcrumblist"",""itemListElement"":[{""@type"":""ListItem"",""@id"":""https:\/\/www.sgaonline.org.au\/#listItem"",""position"":1,""name"":""Home""}]},{""@type"":""Organization"",""@id"":""https:\/\/www.sgaonline.org.au\/#organization"",""name"":""Sustainable Gardening Australia"",""description"":""contributing to sustainability through gardens by protecting and nurturing the natural environment, fostering biodiversity and encouraging local food production. By providing education and information we aim to inspire and empower our community to work towards a healthy biodiverse planet"",""url"":""https:\/\/www.sgaonline.org.au\/"",""telephone"":""+61388503050"",""logo"":{""@type"":""ImageObject"",""url"":""https:\/\/www.sgaonline.org.au\/wp-content\/uploads\/2019\/04\/SGA-white-transp-600x250-crop.jpg"",""@id"":""https:\/\/www.sgaonline.org.au\/#organizationLogo"",""width"":600,""height"":250},""image"":{""@id"":""https:\/\/www.sgaonline.org.au\/#organizationLogo""},""sameAs"":[""https:\/\/www.instagram.com\/sustainablegardeningaustralia\/"",""https:\/\/www.youtube.com\/user\/SustainableGardening""]},{""@type"":""WebPage"",""@id"":""https:\/\/www.sgaonline.org.au\/#webpage"",""url"":""https:\/\/www.sgaonline.org.au\/"",""name"":""Sustainability through gardens"",""description"":""Sustainability through gardens by protecting and nurturing the natural environment, fostering biodiversity and encouraging local food production"",""inLanguage"":""en-AU"",""isPartOf"":{""@id"":""https:\/\/www.sgaonline.org.au\/#website""},""breadcrumb"":{""@id"":""https:\/\/www.sgaonline.org.au\/#breadcrumblist""},""datePublished"":""2024-11-27T11:07:22+11:00"",""dateModified"":""2025-05-25T20:35:01+10:00""},{""@type"":""WebSite"",""@id"":""https:\/\/www.sgaonline.org.au\/#website"",""url"":""https:\/\/www.sgaonline.org.au\/"",""name"":""Sustainable Gardening Australia"",""description"":""contributing to sustainability through gardens by protecting and nurturing the natural environment, fostering biodiversity and encouraging local food production. By providing education and information we aim to inspire and empower our community to work towards a healthy biodiverse planet"",""inLanguage"":""en-AU"",""publisher"":{""@id"":""https:\/\/www.sgaonline.org.au\/#organization""}}]}",,,,
Get involved with the Westside Community Garden,"The Arid Lands Environment Centre gratefully acknowledge the financial support received from the Northern Territory Government, through the Community Benefit Fund major grants program, which has supported our Community Garden Network Project, predominantly, the establishment of the Westside Community Garden in Gillen, Alice Springs.",,,,
,The Westside Community Garden was made possible through an MOU with Centralian Middle School and a Northern Territory,,,,
Halcro Street Community Garden,30 Halcro Street Pialba QLD 4655,4655,152.8264248,-25.27124,https://communitygarden.org.au/wp-content/uploads/2025/03/halcro-st-cg-520x397.jpg
Karama Community Garden,Robyn Lesley Park Koolinda Cres Karama NT 0800,0800,130.91580,-12.39926,https://communitygarden.org.au/wp-content/uploads/2022/03/Karama-Community-Garden1-scaled-520x397.jpg
ABC Community Garden,English (Australia),,-26.6273811,152.9667782,
A History of Community Gardening (and Where it Stands Within Society Today),"Community gardens began taking off in Australia at the turn of the 20th century, and helped local communities suffering from food shortages. The 1970s and 1980s saw community gardening really take off on our shores with Melbourneâs Nunawading and Sydneyâs Callan Park.",,,,
Home,We have teamed up  with Creativity Australia to launch an inspiring new intergenerational choir project.,,,,
A guerrilla gardening group growing produce during the pandemic | Discovery | Gardening Australia - YouTube,"(function(){window.yterr=window.yterr||true;window.unhandledErrorMessages={};window.unhandledErrorCount=0;
window.onerror=function(msg,url,line,columnNumber,error){var err;if(error)err=error;else{err=new Error;err.stack="""";err.message=msg;err.fileName=url;err.lineNumber=line;if(!isNaN(columnNumber))err[""columnNumber""]=columnNumber}var message=String(err.message);if(!err.message||message in window.unhandledErrorMessages||window.unhandledErrorCount>=5)return;window.unhandledErrorCount+=1;window.unhandledErrorMessages[message]=true;var img=new Image;window.emergencyTimeoutImg=img;img.onload=img.onerror=function(){delete window.emergencyTimeoutImg};
var combinedLineAndColumn=err.lineNumber;if(!isNaN(err[""columnNumber""]))combinedLineAndColumn=combinedLineAndColumn+("":""+err[""columnNumber""]);var stack=err.stack||"""";var values={""msg"":message,""type"":err.name,""client.params"":""unhandled window error"",""file"":err.fileName,""line"":combinedLineAndColumn,""stack"":stack.substr(0,500)};var thirdPartyScript=!err.fileName||err.fileName===""<anonymous>""||stack.indexOf(""extension://"")>=0;var replaced=stack.replace(/https:\/\/www.youtube.com\//g,"""");if(replaced.match(/https?:\/\/[^/]+\//))thirdPartyScript=
true;else if(stack.indexOf(""trapProp"")>=0&&stack.indexOf(""trapChain"")>=0)thirdPartyScript=true;else if(message.indexOf(""redefine non-configurable"")>=0)thirdPartyScript=true;var baseUrl=window[""ytcfg""].get(""EMERGENCY_BASE_URL"",""https://www.youtube.com/error_204?t=jserror&level=ERROR"");var unsupported=message.indexOf(""window.customElements is undefined"")>=0;if(thirdPartyScript||unsupported)baseUrl=baseUrl.replace(""level=ERROR"",""level=WARNING"");var parts=[baseUrl];var key;for(key in values){var value=
values[key];if(value)parts.push(key+""=""+encodeURIComponent(value))}img.src=parts.join(""&"")};
(function(){function _getExtendedNativePrototype(tag){var p=this._nativePrototypes[tag];if(!p){p=Object.create(this.getNativePrototype(tag));var p$=Object.getOwnPropertyNames(window[""Polymer""].Base);var i=0;var n=void 0;for(;i<p$.length&&(n=p$[i]);i++)if(!window[""Polymer""].BaseDescriptors[n])try{p[n]=window[""Polymer""].Base[n]}catch(e){throw new Error(""Error while copying property: ""+n+"". Tag is ""+tag);}try{Object.defineProperties(p,window[""Polymer""].BaseDescriptors)}catch(e){throw new Error(""Polymer define property failed for ""+
Object.keys(p));}this._nativePrototypes[tag]=p}return p}function handlePolymerError(msg){window.onerror(msg,window.location.href,0,0,new Error(Array.prototype.join.call(arguments,"","")))}var origPolymer=window[""Polymer""];var newPolymer=function(config){if(!origPolymer._ytIntercepted&&window[""Polymer""].Base){origPolymer._ytIntercepted=true;window[""Polymer""].Base._getExtendedNativePrototype=_getExtendedNativePrototype;window[""Polymer""].Base._error=handlePolymerError;window[""Polymer""].Base._warn=handlePolymerError}return origPolymer.apply(this,
arguments)};var origDescriptor=Object.getOwnPropertyDescriptor(window,""Polymer"");Object.defineProperty(window,""Polymer"",{set:function(p){if(origDescriptor&&origDescriptor.set&&origDescriptor.get){origDescriptor.set(p);origPolymer=origDescriptor.get()}else origPolymer=p;if(typeof origPolymer===""function"")Object.defineProperty(window,""Polymer"",{value:origPolymer,configurable:true,enumerable:true,writable:true})},get:function(){return typeof origPolymer===""function""?newPolymer:origPolymer},configurable:true,
enumerable:true})})();}).call(this);",,,,
River Heads Community Garden,Ariadne Street River Heads QLD 4655,4655,152.91897049742107,-25.42343250316532,https://communitygarden.org.au/wp-content/uploads/2021/02/River-Heads-480x397.jpg
The Garden Gurus - Kalamunda Community Garden - YouTube,"(function(){window.yterr=window.yterr||true;window.unhandledErrorMessages={};window.unhandledErrorCount=0;
window.onerror=function(msg,url,line,columnNumber,error){var err;if(error)err=error;else{err=new Error;err.stack="""";err.message=msg;err.fileName=url;err.lineNumber=line;if(!isNaN(columnNumber))err[""columnNumber""]=columnNumber}var message=String(err.message);if(!err.message||message in window.unhandledErrorMessages||window.unhandledErrorCount>=5)return;window.unhandledErrorCount+=1;window.unhandledErrorMessages[message]=true;var img=new Image;window.emergencyTimeoutImg=img;img.onload=img.onerror=function(){delete window.emergencyTimeoutImg};
var combinedLineAndColumn=err.lineNumber;if(!isNaN(err[""columnNumber""]))combinedLineAndColumn=combinedLineAndColumn+("":""+err[""columnNumber""]);var stack=err.stack||"""";var values={""msg"":message,""type"":err.name,""client.params"":""unhandled window error"",""file"":err.fileName,""line"":combinedLineAndColumn,""stack"":stack.substr(0,500)};var thirdPartyScript=!err.fileName||err.fileName===""<anonymous>""||stack.indexOf(""extension://"")>=0;var replaced=stack.replace(/https:\/\/www.youtube.com\//g,"""");if(replaced.match(/https?:\/\/[^/]+\//))thirdPartyScript=
true;else if(stack.indexOf(""trapProp"")>=0&&stack.indexOf(""trapChain"")>=0)thirdPartyScript=true;else if(message.indexOf(""redefine non-configurable"")>=0)thirdPartyScript=true;var baseUrl=window[""ytcfg""].get(""EMERGENCY_BASE_URL"",""https://www.youtube.com/error_204?t=jserror&level=ERROR"");var unsupported=message.indexOf(""window.customElements is undefined"")>=0;if(thirdPartyScript||unsupported)baseUrl=baseUrl.replace(""level=ERROR"",""level=WARNING"");var parts=[baseUrl];var key;for(key in values){var value=
values[key];if(value)parts.push(key+""=""+encodeURIComponent(value))}img.src=parts.join(""&"")};
(function(){function _getExtendedNativePrototype(tag){var p=this._nativePrototypes[tag];if(!p){p=Object.create(this.getNativePrototype(tag));var p$=Object.getOwnPropertyNames(window[""Polymer""].Base);var i=0;var n=void 0;for(;i<p$.length&&(n=p$[i]);i++)if(!window[""Polymer""].BaseDescriptors[n])try{p[n]=window[""Polymer""].Base[n]}catch(e){throw new Error(""Error while copying property: ""+n+"". Tag is ""+tag);}try{Object.defineProperties(p,window[""Polymer""].BaseDescriptors)}catch(e){throw new Error(""Polymer define property failed for ""+
Object.keys(p));}this._nativePrototypes[tag]=p}return p}function handlePolymerError(msg){window.onerror(msg,window.location.href,0,0,new Error(Array.prototype.join.call(arguments,"","")))}var origPolymer=window[""Polymer""];var newPolymer=function(config){if(!origPolymer._ytIntercepted&&window[""Polymer""].Base){origPolymer._ytIntercepted=true;window[""Polymer""].Base._getExtendedNativePrototype=_getExtendedNativePrototype;window[""Polymer""].Base._error=handlePolymerError;window[""Polymer""].Base._warn=handlePolymerError}return origPolymer.apply(this,
arguments)};var origDescriptor=Object.getOwnPropertyDescriptor(window,""Polymer"");Object.defineProperty(window,""Polymer"",{set:function(p){if(origDescriptor&&origDescriptor.set&&origDescriptor.get){origDescriptor.set(p);origPolymer=origDescriptor.get()}else origPolymer=p;if(typeof origPolymer===""function"")Object.defineProperty(window,""Polymer"",{value:origPolymer,configurable:true,enumerable:true,writable:true})},get:function(){return typeof origPolymer===""function""?newPolymer:origPolymer},configurable:true,
enumerable:true})})();}).call(this);",,,,
Jingili Community Garden,Freshwater Road & Trower Road Jingili NT 0800,0800,130.86773514747622,-12.38481459536398,https://communitygarden.org.au/wp-content/uploads/2021/02/Jingili-Community-Garden4-520x397.jpg
Community gardens: Growing global citizens one child at a time,Community gardens: Growing global citizens one child at a time - News and events - University of South Australia,,,,
Sophie's Fav Gardening Australia Story | Discovery | Gardening Australia - YouTube,"(function(){window.yterr=window.yterr||true;window.unhandledErrorMessages={};window.unhandledErrorCount=0;
window.onerror=function(msg,url,line,columnNumber,error){var err;if(error)err=error;else{err=new Error;err.stack="""";err.message=msg;err.fileName=url;err.lineNumber=line;if(!isNaN(columnNumber))err[""columnNumber""]=columnNumber}var message=String(err.message);if(!err.message||message in window.unhandledErrorMessages||window.unhandledErrorCount>=5)return;window.unhandledErrorCount+=1;window.unhandledErrorMessages[message]=true;var img=new Image;window.emergencyTimeoutImg=img;img.onload=img.onerror=function(){delete window.emergencyTimeoutImg};
var combinedLineAndColumn=err.lineNumber;if(!isNaN(err[""columnNumber""]))combinedLineAndColumn=combinedLineAndColumn+("":""+err[""columnNumber""]);var stack=err.stack||"""";var values={""msg"":message,""type"":err.name,""client.params"":""unhandled window error"",""file"":err.fileName,""line"":combinedLineAndColumn,""stack"":stack.substr(0,500)};var thirdPartyScript=!err.fileName||err.fileName===""<anonymous>""||stack.indexOf(""extension://"")>=0;var replaced=stack.replace(/https:\/\/www.youtube.com\//g,"""");if(replaced.match(/https?:\/\/[^/]+\//))thirdPartyScript=
true;else if(stack.indexOf(""trapProp"")>=0&&stack.indexOf(""trapChain"")>=0)thirdPartyScript=true;else if(message.indexOf(""redefine non-configurable"")>=0)thirdPartyScript=true;var baseUrl=window[""ytcfg""].get(""EMERGENCY_BASE_URL"",""https://www.youtube.com/error_204?t=jserror&level=ERROR"");var unsupported=message.indexOf(""window.customElements is undefined"")>=0;if(thirdPartyScript||unsupported)baseUrl=baseUrl.replace(""level=ERROR"",""level=WARNING"");var parts=[baseUrl];var key;for(key in values){var value=
values[key];if(value)parts.push(key+""=""+encodeURIComponent(value))}img.src=parts.join(""&"")};
(function(){function _getExtendedNativePrototype(tag){var p=this._nativePrototypes[tag];if(!p){p=Object.create(this.getNativePrototype(tag));var p$=Object.getOwnPropertyNames(window[""Polymer""].Base);var i=0;var n=void 0;for(;i<p$.length&&(n=p$[i]);i++)if(!window[""Polymer""].BaseDescriptors[n])try{p[n]=window[""Polymer""].Base[n]}catch(e){throw new Error(""Error while copying property: ""+n+"". Tag is ""+tag);}try{Object.defineProperties(p,window[""Polymer""].BaseDescriptors)}catch(e){throw new Error(""Polymer define property failed for ""+
Object.keys(p));}this._nativePrototypes[tag]=p}return p}function handlePolymerError(msg){window.onerror(msg,window.location.href,0,0,new Error(Array.prototype.join.call(arguments,"","")))}var origPolymer=window[""Polymer""];var newPolymer=function(config){if(!origPolymer._ytIntercepted&&window[""Polymer""].Base){origPolymer._ytIntercepted=true;window[""Polymer""].Base._getExtendedNativePrototype=_getExtendedNativePrototype;window[""Polymer""].Base._error=handlePolymerError;window[""Polymer""].Base._warn=handlePolymerError}return origPolymer.apply(this,
arguments)};var origDescriptor=Object.getOwnPropertyDescriptor(window,""Polymer"");Object.defineProperty(window,""Polymer"",{set:function(p){if(origDescriptor&&origDescriptor.set&&origDescriptor.get){origDescriptor.set(p);origPolymer=origDescriptor.get()}else origPolymer=p;if(typeof origPolymer===""function"")Object.defineProperty(window,""Polymer"",{value:origPolymer,configurable:true,enumerable:true,writable:true})},get:function(){return typeof origPolymer===""function""?newPolymer:origPolymer},configurable:true,
enumerable:true})})();}).call(this);",,,,
We explore the Melbourne International Flower and Garden Show | Discovery | Gardening Australia - YouTube,"(function(){window.yterr=window.yterr||true;window.unhandledErrorMessages={};window.unhandledErrorCount=0;
window.onerror=function(msg,url,line,columnNumber,error){var err;if(error)err=error;else{err=new Error;err.stack="""";err.message=msg;err.fileName=url;err.lineNumber=line;if(!isNaN(columnNumber))err[""columnNumber""]=columnNumber}var message=String(err.message);if(!err.message||message in window.unhandledErrorMessages||window.unhandledErrorCount>=5)return;window.unhandledErrorCount+=1;window.unhandledErrorMessages[message]=true;var img=new Image;window.emergencyTimeoutImg=img;img.onload=img.onerror=function(){delete window.emergencyTimeoutImg};
var combinedLineAndColumn=err.lineNumber;if(!isNaN(err[""columnNumber""]))combinedLineAndColumn=combinedLineAndColumn+("":""+err[""columnNumber""]);var stack=err.stack||"""";var values={""msg"":message,""type"":err.name,""client.params"":""unhandled window error"",""file"":err.fileName,""line"":combinedLineAndColumn,""stack"":stack.substr(0,500)};var thirdPartyScript=!err.fileName||err.fileName===""<anonymous>""||stack.indexOf(""extension://"")>=0;var replaced=stack.replace(/https:\/\/www.youtube.com\//g,"""");if(replaced.match(/https?:\/\/[^/]+\//))thirdPartyScript=
true;else if(stack.indexOf(""trapProp"")>=0&&stack.indexOf(""trapChain"")>=0)thirdPartyScript=true;else if(message.indexOf(""redefine non-configurable"")>=0)thirdPartyScript=true;var baseUrl=window[""ytcfg""].get(""EMERGENCY_BASE_URL"",""https://www.youtube.com/error_204?t=jserror&level=ERROR"");var unsupported=message.indexOf(""window.customElements is undefined"")>=0;if(thirdPartyScript||unsupported)baseUrl=baseUrl.replace(""level=ERROR"",""level=WARNING"");var parts=[baseUrl];var key;for(key in values){var value=
values[key];if(value)parts.push(key+""=""+encodeURIComponent(value))}img.src=parts.join(""&"")};
(function(){function _getExtendedNativePrototype(tag){var p=this._nativePrototypes[tag];if(!p){p=Object.create(this.getNativePrototype(tag));var p$=Object.getOwnPropertyNames(window[""Polymer""].Base);var i=0;var n=void 0;for(;i<p$.length&&(n=p$[i]);i++)if(!window[""Polymer""].BaseDescriptors[n])try{p[n]=window[""Polymer""].Base[n]}catch(e){throw new Error(""Error while copying property: ""+n+"". Tag is ""+tag);}try{Object.defineProperties(p,window[""Polymer""].BaseDescriptors)}catch(e){throw new Error(""Polymer define property failed for ""+
Object.keys(p));}this._nativePrototypes[tag]=p}return p}function handlePolymerError(msg){window.onerror(msg,window.location.href,0,0,new Error(Array.prototype.join.call(arguments,"","")))}var origPolymer=window[""Polymer""];var newPolymer=function(config){if(!origPolymer._ytIntercepted&&window[""Polymer""].Base){origPolymer._ytIntercepted=true;window[""Polymer""].Base._getExtendedNativePrototype=_getExtendedNativePrototype;window[""Polymer""].Base._error=handlePolymerError;window[""Polymer""].Base._warn=handlePolymerError}return origPolymer.apply(this,
arguments)};var origDescriptor=Object.getOwnPropertyDescriptor(window,""Polymer"");Object.defineProperty(window,""Polymer"",{set:function(p){if(origDescriptor&&origDescriptor.set&&origDescriptor.get){origDescriptor.set(p);origPolymer=origDescriptor.get()}else origPolymer=p;if(typeof origPolymer===""function"")Object.defineProperty(window,""Polymer"",{value:origPolymer,configurable:true,enumerable:true,writable:true})},get:function(){return typeof origPolymer===""function""?newPolymer:origPolymer},configurable:true,
enumerable:true})})();}).call(this);",,,,
Community Gardens,Community Gardens Australia,,-37.8447194,145.1787053,
Gardens,Australian Aboriginal flag,,,,
Utopia(Australian TV series),Utopia (Australian TV series) - Wikipedia,,,,
Kununurra Community Garden,"2429 Coolibah Dr, Kununurra WA 6743",6743,128.73578397924686,-15.775936030647452,https://communitygarden.org.au/wp-content/uploads/2022/12/kununurra-cg-520x397.jpg
Westmeadows Indigenous Community Garden,English (Australia),,-26.6273811,152.9667782,
Whitsunday Organic Community Gardens,45 Galbraith Park Drive Cannon Valley QLD 4802,4802,148.67029421704905,-20.291705753040883,https://communitygarden.org.au/wp-content/uploads/2021/03/whitsunday3-520x397.jpg
"Springvale Community Garden | Are you involved in a community garden? We would love to hear about it! Share below 👋 

Jane Edmanson has a special affinity for the Springvale Community... | By Gardening Australia","Springvale Community Garden | Are you involved in a community garden? We would love to hear about it! Share below 👋 

Jane Edmanson has a special affinity for the Springvale Community... | By Gardening Australia",,,,
Northern Beaches Council home page,Stony Range Regional Botanic Garden | Northern Beaches Council,,-33.7578874,151.2827679,
Bowen Community Garden,"65 Williams St, Bowen QLD 4805",4805,148.24204444885257,-20.01641462803881,https://communitygarden.org.au/wp-content/uploads/2024/05/tree-planting-bowen-cg-520x349.jpg
Healesville Community Garden,English (Australia),,-26.6273811,152.9667782,
Walyu Yarta Community Garden: celebrating 10 years,Australian Aboriginal flag,,,,
"Community Gardens Australia(CGA) is a fantastic first stop for new gardeners or those wanting to get their plant-fix. Joining a community garden offers a plethora of benefits that extend beyond the act of gardening itself. Firstly, it provides a unique opportunity for individuals to connect with like-minded community members, fostering a sense of belonging and camaraderie. Collaborative gardening encourages the exchange of knowledge, expertise, and gardening tips, creating a supportive environment for both beginners and experienced gardeners alike.Beyond the social aspect, community gardens promote sustainable practices by cultivating local, organic produce. Participants can enjoy the fruits (quite literally) of their labour while reducing their carbon footprint and contributing to a healthier, more eco-friendly lifestyle. Access to fresh, homegrown produce also supports healthier eating habits and can lead to improved overall well-being.Moreover, community gardens serve as outdoor spaces for relaxation and stress relief, offering a peaceful escape from the hustle and bustle of daily life. Engaging in gardening activities has been linked to mental health benefits, including reduced stress and increased feelings of accomplishment.In essence, joining a community garden is not just about cultivating plants; it's about cultivating relationships, sustainability, and personal well-being, making it a fulfilling and enriching experience for individuals seeking a more connected and sustainable lifestyle.",WARNING: Respond.js doesn't work if you view the page via file://,,,,
Calliope Garden Club,Bunting Park Archer St Calliope QLD 4680,4680,151.1966824592781,-24.00496932608684,https://communitygarden.org.au/wp-content/uploads/2021/02/calliope4-520x397.jpg
Community Greening,Australian Botanic Garden,,-35.2777504,149.1076103,
Community Gardens,Community Gardens | SAcommunity - Connecting Up Australia,,,,
Popular searches,English (Australia),,-26.6273811,152.9667782,
Bungalow Community Garden,213 Spence St Bungalow QLD 4870,4870,145.7622731,-16.9355601,https://communitygarden.org.au/wp-content/uploads/2023/11/bungalow-cg-520x397.jpg
Community gardens,Clean Up Australia Day,,,,
Kirkstall Community Gardens: learning where food comes from,Australia edition,,-27.6015295,152.9522698,
Behind the scenes of a Gardening Australia producer's garden | Garden Design | Gardening Australia - YouTube,"(function(){window.yterr=window.yterr||true;window.unhandledErrorMessages={};window.unhandledErrorCount=0;
window.onerror=function(msg,url,line,columnNumber,error){var err;if(error)err=error;else{err=new Error;err.stack="""";err.message=msg;err.fileName=url;err.lineNumber=line;if(!isNaN(columnNumber))err[""columnNumber""]=columnNumber}var message=String(err.message);if(!err.message||message in window.unhandledErrorMessages||window.unhandledErrorCount>=5)return;window.unhandledErrorCount+=1;window.unhandledErrorMessages[message]=true;var img=new Image;window.emergencyTimeoutImg=img;img.onload=img.onerror=function(){delete window.emergencyTimeoutImg};
var combinedLineAndColumn=err.lineNumber;if(!isNaN(err[""columnNumber""]))combinedLineAndColumn=combinedLineAndColumn+("":""+err[""columnNumber""]);var stack=err.stack||"""";var values={""msg"":message,""type"":err.name,""client.params"":""unhandled window error"",""file"":err.fileName,""line"":combinedLineAndColumn,""stack"":stack.substr(0,500)};var thirdPartyScript=!err.fileName||err.fileName===""<anonymous>""||stack.indexOf(""extension://"")>=0;var replaced=stack.replace(/https:\/\/www.youtube.com\//g,"""");if(replaced.match(/https?:\/\/[^/]+\//))thirdPartyScript=
true;else if(stack.indexOf(""trapProp"")>=0&&stack.indexOf(""trapChain"")>=0)thirdPartyScript=true;else if(message.indexOf(""redefine non-configurable"")>=0)thirdPartyScript=true;var baseUrl=window[""ytcfg""].get(""EMERGENCY_BASE_URL"",""https://www.youtube.com/error_204?t=jserror&level=ERROR"");var unsupported=message.indexOf(""window.customElements is undefined"")>=0;if(thirdPartyScript||unsupported)baseUrl=baseUrl.replace(""level=ERROR"",""level=WARNING"");var parts=[baseUrl];var key;for(key in values){var value=
values[key];if(value)parts.push(key+""=""+encodeURIComponent(value))}img.src=parts.join(""&"")};
(function(){function _getExtendedNativePrototype(tag){var p=this._nativePrototypes[tag];if(!p){p=Object.create(this.getNativePrototype(tag));var p$=Object.getOwnPropertyNames(window[""Polymer""].Base);var i=0;var n=void 0;for(;i<p$.length&&(n=p$[i]);i++)if(!window[""Polymer""].BaseDescriptors[n])try{p[n]=window[""Polymer""].Base[n]}catch(e){throw new Error(""Error while copying property: ""+n+"". Tag is ""+tag);}try{Object.defineProperties(p,window[""Polymer""].BaseDescriptors)}catch(e){throw new Error(""Polymer define property failed for ""+
Object.keys(p));}this._nativePrototypes[tag]=p}return p}function handlePolymerError(msg){window.onerror(msg,window.location.href,0,0,new Error(Array.prototype.join.call(arguments,"","")))}var origPolymer=window[""Polymer""];var newPolymer=function(config){if(!origPolymer._ytIntercepted&&window[""Polymer""].Base){origPolymer._ytIntercepted=true;window[""Polymer""].Base._getExtendedNativePrototype=_getExtendedNativePrototype;window[""Polymer""].Base._error=handlePolymerError;window[""Polymer""].Base._warn=handlePolymerError}return origPolymer.apply(this,
arguments)};var origDescriptor=Object.getOwnPropertyDescriptor(window,""Polymer"");Object.defineProperty(window,""Polymer"",{set:function(p){if(origDescriptor&&origDescriptor.set&&origDescriptor.get){origDescriptor.set(p);origPolymer=origDescriptor.get()}else origPolymer=p;if(typeof origPolymer===""function"")Object.defineProperty(window,""Polymer"",{value:origPolymer,configurable:true,enumerable:true,writable:true})},get:function(){return typeof origPolymer===""function""?newPolymer:origPolymer},configurable:true,
enumerable:true})})();}).call(this);",,,,
About Community gardens,English (Australia),,-26.6273811,152.9667782,
Community Gardens Australia,Community Gardens Australia,,-37.8447194,145.1787053,
"EON Foundation fruit, veggie gardens boost nutrition and budgets in remote NT communities","{""@context"":""http://schema.org"",""@type"":""NewsArticle"",""author"":[{""@type"":""Person"",""name"":""Victoria Ellis"",""url"":""https://www.abc.net.au/news/victoria-ellis/12535460""}],""dateModified"":""2024-06-13T01:33:11+00:00"",""datePublished"":""2024-06-13T01:33:11+00:00"",""description"":""Fruit and veggies are expensive in these remote communities, but a nutrition program is helping school students and their families grow their own, and improving health outcomes at the same time."",""headline"":""EON Foundation fruit, veggie gardens boost nutrition and budgets in remote NT communities "",""image"":{""@type"":""ImageObject"",""height"":485,""url"":""https://live-production.wcms.abc-cdn.net.au/8e511bfde884c1a1e706fd5b0262957a?impolicy=wcms_crop_resize&cropH=2813&cropW=5000&xPos=0&yPos=0&width=862&height=485"",""width"":862},""keywords"":""Yipirinya School,Aboriginal communities,remote communities,central Australia,EON Foundation,fruit and vegetables,food security,food prices,cost of living,Ampilatwatja,community vege gardens,diabetes,homegrown,fresh food,nutrition"",""mainEntityOfPage"":""https://www.abc.net.au/news/2024-06-13/eon-foundation-establishes-fruit-and-vegetable-gardens-remote-nt/103962472"",""publisher"":{""@type"":""NewsMediaOrganization"",""name"":""ABC News"",""alternateName"":[""ABCNews"",""A B C News"",""abc news""],""url"":""https://www.abc.net.au/news"",""sameAs"":[""https://en.wikipedia.org/wiki/ABC_News_(Australia)"",""https://twitter.com/abcnews"",""https://www.facebook.com/abcnews.au/""],""logo"":{""@type"":""ImageObject"",""height"":60,""url"":""https://www.abc.net.au/res/abc/logos/amp-news-logo-60x240.png"",""width"":240}}}",,,,
Community Gardens Australia (@communitygardensaustralia) • Instagram photos and videos,Community Gardens Australia (@communitygardensaustralia) • Instagram photos and videos,,,,
Community Garden,Community Garden | Bundaberg | The Salvation Army Australia,,,,
Daniel’s tropical garden in AUSTRALIA,"{
    ""@context"": ""http:\/\/schema.org\/"",
    ""@type"": ""ItemList"",
    ""numberOfItems"": 1,
    ""itemListElement"": [
        {
            ""@type"": ""ListItem"",
            ""position"": 1,
            ""item"": {
                ""@type"": ""Product"",
                ""name"": ""A.M. Leonard Deluxe Soil Knife & Leather Sheath Combo"",
                ""url"": ""https:\/\/www.finegardening.com\/article\/daniels-tropical-garden-in-australia"",
                ""image"": ""https:\/\/www.finegardening.com\/app\/uploads\/2024\/11\/AMLeonard-Hori-Hori-500x500.jpg"",
                ""description"": ""MULTITASKING DUAL EDGES: a deep serrated edge and a tapered slicing edge ideal for tough or delicate cuts. DURABLE 6-inch stainless steel blade withstands 300 lbs of pressure. TWINE CUTTING NOTCH, DEPTH GAUGE MARKINGS & spear point - no need to switch tools when using this garden knife. LEATHER SHEATH: heavy duty, protective, clip on sheath to keep your knife convenient and secure. LIFETIME WARRANTY."",
                ""offers"": [
                    {
                        ""@type"": ""Offer"",
                        ""name"": ""A.M. Leonard Deluxe Soil Knife & Leather Sheath Combo"",
                        ""price"": ""46.80"",
                        ""priceCurrency"": ""USD"",
                        ""url"": ""https:\/\/a.co\/d\/64NlOi6?tag=fgd_1001-20"",
                        ""offeredBy"": {
                            ""@type"": ""Organization"",
                            ""name"": ""Amazon""
                        }
                    }
                ]
            }
        }
    ]
}",,,,
Food,Northern Territory,,-19.8516101,133.2303375,
Community gardens,Australian citizenship ceremonies,,,,
Vista Gardens promotes sustainability in Carrollwood Village,unclear,,,,
Contact us,Australian City Farms and Community Gardens Network - Organisations - Promote and practice - Australian Indigenous HealthInfoNet,,,,
Secret Sydney 73: Bay Community Garden - YouTube,"(function(){window.yterr=window.yterr||true;window.unhandledErrorMessages={};window.unhandledErrorCount=0;
window.onerror=function(msg,url,line,columnNumber,error){var err;if(error)err=error;else{err=new Error;err.stack="""";err.message=msg;err.fileName=url;err.lineNumber=line;if(!isNaN(columnNumber))err[""columnNumber""]=columnNumber}var message=String(err.message);if(!err.message||message in window.unhandledErrorMessages||window.unhandledErrorCount>=5)return;window.unhandledErrorCount+=1;window.unhandledErrorMessages[message]=true;var img=new Image;window.emergencyTimeoutImg=img;img.onload=img.onerror=function(){delete window.emergencyTimeoutImg};
var combinedLineAndColumn=err.lineNumber;if(!isNaN(err[""columnNumber""]))combinedLineAndColumn=combinedLineAndColumn+("":""+err[""columnNumber""]);var stack=err.stack||"""";var values={""msg"":message,""type"":err.name,""client.params"":""unhandled window error"",""file"":err.fileName,""line"":combinedLineAndColumn,""stack"":stack.substr(0,500)};var thirdPartyScript=!err.fileName||err.fileName===""<anonymous>""||stack.indexOf(""extension://"")>=0;var replaced=stack.replace(/https:\/\/www.youtube.com\//g,"""");if(replaced.match(/https?:\/\/[^/]+\//))thirdPartyScript=
true;else if(stack.indexOf(""trapProp"")>=0&&stack.indexOf(""trapChain"")>=0)thirdPartyScript=true;else if(message.indexOf(""redefine non-configurable"")>=0)thirdPartyScript=true;var baseUrl=window[""ytcfg""].get(""EMERGENCY_BASE_URL"",""https://www.youtube.com/error_204?t=jserror&level=ERROR"");var unsupported=message.indexOf(""window.customElements is undefined"")>=0;if(thirdPartyScript||unsupported)baseUrl=baseUrl.replace(""level=ERROR"",""level=WARNING"");var parts=[baseUrl];var key;for(key in values){var value=
values[key];if(value)parts.push(key+""=""+encodeURIComponent(value))}img.src=parts.join(""&"")};
(function(){function _getExtendedNativePrototype(tag){var p=this._nativePrototypes[tag];if(!p){p=Object.create(this.getNativePrototype(tag));var p$=Object.getOwnPropertyNames(window[""Polymer""].Base);var i=0;var n=void 0;for(;i<p$.length&&(n=p$[i]);i++)if(!window[""Polymer""].BaseDescriptors[n])try{p[n]=window[""Polymer""].Base[n]}catch(e){throw new Error(""Error while copying property: ""+n+"". Tag is ""+tag);}try{Object.defineProperties(p,window[""Polymer""].BaseDescriptors)}catch(e){throw new Error(""Polymer define property failed for ""+
Object.keys(p));}this._nativePrototypes[tag]=p}return p}function handlePolymerError(msg){window.onerror(msg,window.location.href,0,0,new Error(Array.prototype.join.call(arguments,"","")))}var origPolymer=window[""Polymer""];var newPolymer=function(config){if(!origPolymer._ytIntercepted&&window[""Polymer""].Base){origPolymer._ytIntercepted=true;window[""Polymer""].Base._getExtendedNativePrototype=_getExtendedNativePrototype;window[""Polymer""].Base._error=handlePolymerError;window[""Polymer""].Base._warn=handlePolymerError}return origPolymer.apply(this,
arguments)};var origDescriptor=Object.getOwnPropertyDescriptor(window,""Polymer"");Object.defineProperty(window,""Polymer"",{set:function(p){if(origDescriptor&&origDescriptor.set&&origDescriptor.get){origDescriptor.set(p);origPolymer=origDescriptor.get()}else origPolymer=p;if(typeof origPolymer===""function"")Object.defineProperty(window,""Polymer"",{value:origPolymer,configurable:true,enumerable:true,writable:true})},get:function(){return typeof origPolymer===""function""?newPolymer:origPolymer},configurable:true,
enumerable:true})})();}).call(this);",,,,
Community Gardens,Treaty Six Territory,,,,
Community Gardens,Community gardens. SGA | Sustainable Gardening Australia,,,,
Dampier Community Garden,Dampier Drive Dampier WA 6713,6713,116.713734,-20.664914,https://communitygarden.org.au/wp-content/uploads/2021/11/117347184_127243662413817_1637978381205634338_n-520x397.jpg
Community gardening,Australia,,-24.7761086,134.755,
Lilydale Community Gardens,English (Australia),,-26.6273811,152.9667782,
Buncrana to blossom with new community garden,"Bringing you live local breaking news, sport, politics, weather & more in Ireland UK Scotland Northern Ireland World",,,,
Growing the Palmerston community,Growing the Palmerston community | STEPS Group Australia,,,,
Greenacres Community Gardens,Greenacres Community Gardens – APR Composites | Australian Composite Products | Composite Products Manufacturer,,,,
A Modern Australian Garden for Outdoor Entertaining | Behind the Garden Gate - YouTube,"(function(){window.yterr=window.yterr||true;window.unhandledErrorMessages={};window.unhandledErrorCount=0;
window.onerror=function(msg,url,line,columnNumber,error){var err;if(error)err=error;else{err=new Error;err.stack="""";err.message=msg;err.fileName=url;err.lineNumber=line;if(!isNaN(columnNumber))err[""columnNumber""]=columnNumber}var message=String(err.message);if(!err.message||message in window.unhandledErrorMessages||window.unhandledErrorCount>=5)return;window.unhandledErrorCount+=1;window.unhandledErrorMessages[message]=true;var img=new Image;window.emergencyTimeoutImg=img;img.onload=img.onerror=function(){delete window.emergencyTimeoutImg};
var combinedLineAndColumn=err.lineNumber;if(!isNaN(err[""columnNumber""]))combinedLineAndColumn=combinedLineAndColumn+("":""+err[""columnNumber""]);var stack=err.stack||"""";var values={""msg"":message,""type"":err.name,""client.params"":""unhandled window error"",""file"":err.fileName,""line"":combinedLineAndColumn,""stack"":stack.substr(0,500)};var thirdPartyScript=!err.fileName||err.fileName===""<anonymous>""||stack.indexOf(""extension://"")>=0;var replaced=stack.replace(/https:\/\/www.youtube.com\//g,"""");if(replaced.match(/https?:\/\/[^/]+\//))thirdPartyScript=
true;else if(stack.indexOf(""trapProp"")>=0&&stack.indexOf(""trapChain"")>=0)thirdPartyScript=true;else if(message.indexOf(""redefine non-configurable"")>=0)thirdPartyScript=true;var baseUrl=window[""ytcfg""].get(""EMERGENCY_BASE_URL"",""https://www.youtube.com/error_204?t=jserror&level=ERROR"");var unsupported=message.indexOf(""window.customElements is undefined"")>=0;if(thirdPartyScript||unsupported)baseUrl=baseUrl.replace(""level=ERROR"",""level=WARNING"");var parts=[baseUrl];var key;for(key in values){var value=
values[key];if(value)parts.push(key+""=""+encodeURIComponent(value))}img.src=parts.join(""&"")};
(function(){function _getExtendedNativePrototype(tag){var p=this._nativePrototypes[tag];if(!p){p=Object.create(this.getNativePrototype(tag));var p$=Object.getOwnPropertyNames(window[""Polymer""].Base);var i=0;var n=void 0;for(;i<p$.length&&(n=p$[i]);i++)if(!window[""Polymer""].BaseDescriptors[n])try{p[n]=window[""Polymer""].Base[n]}catch(e){throw new Error(""Error while copying property: ""+n+"". Tag is ""+tag);}try{Object.defineProperties(p,window[""Polymer""].BaseDescriptors)}catch(e){throw new Error(""Polymer define property failed for ""+
Object.keys(p));}this._nativePrototypes[tag]=p}return p}function handlePolymerError(msg){window.onerror(msg,window.location.href,0,0,new Error(Array.prototype.join.call(arguments,"","")))}var origPolymer=window[""Polymer""];var newPolymer=function(config){if(!origPolymer._ytIntercepted&&window[""Polymer""].Base){origPolymer._ytIntercepted=true;window[""Polymer""].Base._getExtendedNativePrototype=_getExtendedNativePrototype;window[""Polymer""].Base._error=handlePolymerError;window[""Polymer""].Base._warn=handlePolymerError}return origPolymer.apply(this,
arguments)};var origDescriptor=Object.getOwnPropertyDescriptor(window,""Polymer"");Object.defineProperty(window,""Polymer"",{set:function(p){if(origDescriptor&&origDescriptor.set&&origDescriptor.get){origDescriptor.set(p);origPolymer=origDescriptor.get()}else origPolymer=p;if(typeof origPolymer===""function"")Object.defineProperty(window,""Polymer"",{value:origPolymer,configurable:true,enumerable:true,writable:true})},get:function(){return typeof origPolymer===""function""?newPolymer:origPolymer},configurable:true,
enumerable:true})})();}).call(this);",,,,
Kingaroy Community Garden,Avoca Street Kingaroy QLD 4610,4610,151.8404244268176,-26.54575463287875,https://communitygarden.org.au/wp-content/uploads/2021/02/Kingaroy6-520x253.jpg
Rules for a community garden,"// Setting this provides Lit a CSP nonce to use when dyamically creating style elements in
      // browsers that don't support constructed stylesheets. See https://lit.dev/docs/api/LitElement/#LitElement.styles
      window.litNonce = '1csr4zSKvRaZeIrBZSBFoQ==';

      var CLIENT_CONFIG = {""USE_DEBUG"":false,""ACCOUNT_MANAGER_ORIGIN"":""https://www.reddit.com"",""APPLE_SSO_CLIENT_ID"":""com.reddit.RedditAppleSSO"",""MANIFEST_FILE"":""client-manifest.json"",""ORIGIN"":""https://www.reddit.com"",""MWEB_ORIGIN"":""https://www.reddit.com"",""GOOGLE_SSO_CLIENT_ID"":""705819728788-b2c1kcs7tst3b7ghv7at0hkqmtc68ckl.apps.googleusercontent.com"",""MEDIA_BASE_URL"":""https://www.redditstatic.com/"",""PRECONNECT_ORIGINS"":[""https://www.redditstatic.com/""],""STATIC_BASE_URL"":""https://www.redditstatic.com/shreddit/"",""IN_CLUSTER_STATIC_BASE_URL"":""https://www.redditstatic.com/shreddit/"",""TRACKING_KEY"":""ShredditFrontend-v1"",""TRACKING_ENDPOINT"":""https://events.redditmedia.com/v2j"",""TRACKING_SECRET"":""eW9vM3lhZW00VW9naDVleGFlZm9lcGhlZTZQaG9o"",""W3_REPORTING_WEB_VITAL_REPORTS_URL"":""https://w3-reporting.reddit.com/reports"",""IS_GKE"":false,""DEVVIT_GATEWAY_ORIGIN"":""https://devvit-gateway.reddit.com""};",,,,
Find a garden – NT › Community Gardens Australia,Find a garden – NT › Community Gardens Australia,,,,
Main navigation,Australian Ex-Prisoners of War Memorial Commemorative Service,,,,
Pick Me Up Plants,Pick Me Up Plants - Gardening Australia,,,,
Alawa Community Garden arming Darwinites with sustainable living goals - set to represent NT,"{""@context"":""https://schema.org"",""@type"":""Organization"",""name"":""Mirage News"",""url"":""https://www.miragenews.com"",""logo"":""https://www.miragenews.com/wp-content/themes/mirage/images/mirage_lg.png"",""sameAs"":[""https://www.facebook.com/miragenews/"",""https://twitter.com/MiragenewsCom""],""description"":""Wollongong-based online news outlet covering Australia and beyond. If you have anything newsworthy - a story, video or picture to share with us, please email us."",""address"":{""@type"":""PostalAddress"",""streetAddress"":""Squires Way"",""addressLocality"":""Wollongong"",""addressRegion"":""Australia""},""contactPoint"":[{""@type"":""ContactPoint"",""contactType"":""customer service"",""contactOption"":""TollFree"",""email"":""contact@miragenews.com"",""productSupported"":""News"",""availableLanguage"":[""English""],""areaServed"":""AU""}]}",,,,
Geelong West Community Garden Inc,"Wadawurrung Country, 129 Autumn Street,  Geelong West 3218 VIC Australia",,,,
Prospect Community Garden,Prospect Community Garden | SAcommunity - Connecting Up Australia,,,,
A survey of remote Aboriginal horticulture and community gardens in the Northern Territory,A survey of remote Aboriginal horticulture and community gardens in the Northern Territory - Ninti One,,,,
Doncaster Hill Community Garden working bee,Australia,,-24.7761086,134.755,
Touring the gorgeous garden of plant educators | Garden Design and Inspiration | Gardening Australia - YouTube,"(function(){window.yterr=window.yterr||true;window.unhandledErrorMessages={};window.unhandledErrorCount=0;
window.onerror=function(msg,url,line,columnNumber,error){var err;if(error)err=error;else{err=new Error;err.stack="""";err.message=msg;err.fileName=url;err.lineNumber=line;if(!isNaN(columnNumber))err[""columnNumber""]=columnNumber}var message=String(err.message);if(!err.message||message in window.unhandledErrorMessages||window.unhandledErrorCount>=5)return;window.unhandledErrorCount+=1;window.unhandledErrorMessages[message]=true;var img=new Image;window.emergencyTimeoutImg=img;img.onload=img.onerror=function(){delete window.emergencyTimeoutImg};
var combinedLineAndColumn=err.lineNumber;if(!isNaN(err[""columnNumber""]))combinedLineAndColumn=combinedLineAndColumn+("":""+err[""columnNumber""]);var stack=err.stack||"""";var values={""msg"":message,""type"":err.name,""client.params"":""unhandled window error"",""file"":err.fileName,""line"":combinedLineAndColumn,""stack"":stack.substr(0,500)};var thirdPartyScript=!err.fileName||err.fileName===""<anonymous>""||stack.indexOf(""extension://"")>=0;var replaced=stack.replace(/https:\/\/www.youtube.com\//g,"""");if(replaced.match(/https?:\/\/[^/]+\//))thirdPartyScript=
true;else if(stack.indexOf(""trapProp"")>=0&&stack.indexOf(""trapChain"")>=0)thirdPartyScript=true;else if(message.indexOf(""redefine non-configurable"")>=0)thirdPartyScript=true;var baseUrl=window[""ytcfg""].get(""EMERGENCY_BASE_URL"",""https://www.youtube.com/error_204?t=jserror&level=ERROR"");var unsupported=message.indexOf(""window.customElements is undefined"")>=0;if(thirdPartyScript||unsupported)baseUrl=baseUrl.replace(""level=ERROR"",""level=WARNING"");var parts=[baseUrl];var key;for(key in values){var value=
values[key];if(value)parts.push(key+""=""+encodeURIComponent(value))}img.src=parts.join(""&"")};
(function(){function _getExtendedNativePrototype(tag){var p=this._nativePrototypes[tag];if(!p){p=Object.create(this.getNativePrototype(tag));var p$=Object.getOwnPropertyNames(window[""Polymer""].Base);var i=0;var n=void 0;for(;i<p$.length&&(n=p$[i]);i++)if(!window[""Polymer""].BaseDescriptors[n])try{p[n]=window[""Polymer""].Base[n]}catch(e){throw new Error(""Error while copying property: ""+n+"". Tag is ""+tag);}try{Object.defineProperties(p,window[""Polymer""].BaseDescriptors)}catch(e){throw new Error(""Polymer define property failed for ""+
Object.keys(p));}this._nativePrototypes[tag]=p}return p}function handlePolymerError(msg){window.onerror(msg,window.location.href,0,0,new Error(Array.prototype.join.call(arguments,"","")))}var origPolymer=window[""Polymer""];var newPolymer=function(config){if(!origPolymer._ytIntercepted&&window[""Polymer""].Base){origPolymer._ytIntercepted=true;window[""Polymer""].Base._getExtendedNativePrototype=_getExtendedNativePrototype;window[""Polymer""].Base._error=handlePolymerError;window[""Polymer""].Base._warn=handlePolymerError}return origPolymer.apply(this,
arguments)};var origDescriptor=Object.getOwnPropertyDescriptor(window,""Polymer"");Object.defineProperty(window,""Polymer"",{set:function(p){if(origDescriptor&&origDescriptor.set&&origDescriptor.get){origDescriptor.set(p);origPolymer=origDescriptor.get()}else origPolymer=p;if(typeof origPolymer===""function"")Object.defineProperty(window,""Polymer"",{value:origPolymer,configurable:true,enumerable:true,writable:true})},get:function(){return typeof origPolymer===""function""?newPolymer:origPolymer},configurable:true,
enumerable:true})})();}).call(this);",,,,
What's on,Australia Day Awards,,,,
Turn a traffic island into a community garden | Growing fruit and veg | Gardening Australia - YouTube,"(function(){window.yterr=window.yterr||true;window.unhandledErrorMessages={};window.unhandledErrorCount=0;
window.onerror=function(msg,url,line,columnNumber,error){var err;if(error)err=error;else{err=new Error;err.stack="""";err.message=msg;err.fileName=url;err.lineNumber=line;if(!isNaN(columnNumber))err[""columnNumber""]=columnNumber}var message=String(err.message);if(!err.message||message in window.unhandledErrorMessages||window.unhandledErrorCount>=5)return;window.unhandledErrorCount+=1;window.unhandledErrorMessages[message]=true;var img=new Image;window.emergencyTimeoutImg=img;img.onload=img.onerror=function(){delete window.emergencyTimeoutImg};
var combinedLineAndColumn=err.lineNumber;if(!isNaN(err[""columnNumber""]))combinedLineAndColumn=combinedLineAndColumn+("":""+err[""columnNumber""]);var stack=err.stack||"""";var values={""msg"":message,""type"":err.name,""client.params"":""unhandled window error"",""file"":err.fileName,""line"":combinedLineAndColumn,""stack"":stack.substr(0,500)};var thirdPartyScript=!err.fileName||err.fileName===""<anonymous>""||stack.indexOf(""extension://"")>=0;var replaced=stack.replace(/https:\/\/www.youtube.com\//g,"""");if(replaced.match(/https?:\/\/[^/]+\//))thirdPartyScript=
true;else if(stack.indexOf(""trapProp"")>=0&&stack.indexOf(""trapChain"")>=0)thirdPartyScript=true;else if(message.indexOf(""redefine non-configurable"")>=0)thirdPartyScript=true;var baseUrl=window[""ytcfg""].get(""EMERGENCY_BASE_URL"",""https://www.youtube.com/error_204?t=jserror&level=ERROR"");var unsupported=message.indexOf(""window.customElements is undefined"")>=0;if(thirdPartyScript||unsupported)baseUrl=baseUrl.replace(""level=ERROR"",""level=WARNING"");var parts=[baseUrl];var key;for(key in values){var value=
values[key];if(value)parts.push(key+""=""+encodeURIComponent(value))}img.src=parts.join(""&"")};
(function(){function _getExtendedNativePrototype(tag){var p=this._nativePrototypes[tag];if(!p){p=Object.create(this.getNativePrototype(tag));var p$=Object.getOwnPropertyNames(window[""Polymer""].Base);var i=0;var n=void 0;for(;i<p$.length&&(n=p$[i]);i++)if(!window[""Polymer""].BaseDescriptors[n])try{p[n]=window[""Polymer""].Base[n]}catch(e){throw new Error(""Error while copying property: ""+n+"". Tag is ""+tag);}try{Object.defineProperties(p,window[""Polymer""].BaseDescriptors)}catch(e){throw new Error(""Polymer define property failed for ""+
Object.keys(p));}this._nativePrototypes[tag]=p}return p}function handlePolymerError(msg){window.onerror(msg,window.location.href,0,0,new Error(Array.prototype.join.call(arguments,"","")))}var origPolymer=window[""Polymer""];var newPolymer=function(config){if(!origPolymer._ytIntercepted&&window[""Polymer""].Base){origPolymer._ytIntercepted=true;window[""Polymer""].Base._getExtendedNativePrototype=_getExtendedNativePrototype;window[""Polymer""].Base._error=handlePolymerError;window[""Polymer""].Base._warn=handlePolymerError}return origPolymer.apply(this,
arguments)};var origDescriptor=Object.getOwnPropertyDescriptor(window,""Polymer"");Object.defineProperty(window,""Polymer"",{set:function(p){if(origDescriptor&&origDescriptor.set&&origDescriptor.get){origDescriptor.set(p);origPolymer=origDescriptor.get()}else origPolymer=p;if(typeof origPolymer===""function"")Object.defineProperty(window,""Polymer"",{value:origPolymer,configurable:true,enumerable:true,writable:true})},get:function(){return typeof origPolymer===""function""?newPolymer:origPolymer},configurable:true,
enumerable:true})})();}).call(this);",,,,
Johnstone River Community Gardens Inc,45 Flying Fish Point Rd Innisfail QLD 4860,4860,146.03447914123538,-17.517239210638266,https://communitygarden.org.au/wp-content/uploads/2021/04/johnstone-cg-1-520x397.jpg
Community Gardens,Community gardens | Sustainable Gardening Australia,,,,
Community gardens,English (Australia),,-26.6273811,152.9667782,
COGS Community Gardens,"The COGS Constitution states that “organic gardening principles must be complied with at all times in the community gardens”. While COGS is not engaged in commercial agriculture or horticulture it has adopted the National Standard for Organic and BioDynamic Produce as the overarching standard governing its practices in community gardens. Organic certifiers in Australia are required to apply this standard as a minimum for products placed on the market that claim to be produced under organic or bio-dynamic systems. To give practical effect to this policy, COGS also applies the Australian Certified Organic Standard – specifically, its General Primary Production and Crop Production Inputs standards – in its operations of community gardens.",,,,
Like to add your community garden to our map?,Community Gardens Australia a community-based organisation,,,,
Meet the young gardener feeding his community | Garden Design and Inspiration | Gardening Australia - YouTube,"(function(){window.yterr=window.yterr||true;window.unhandledErrorMessages={};window.unhandledErrorCount=0;
window.onerror=function(msg,url,line,columnNumber,error){var err;if(error)err=error;else{err=new Error;err.stack="""";err.message=msg;err.fileName=url;err.lineNumber=line;if(!isNaN(columnNumber))err[""columnNumber""]=columnNumber}var message=String(err.message);if(!err.message||message in window.unhandledErrorMessages||window.unhandledErrorCount>=5)return;window.unhandledErrorCount+=1;window.unhandledErrorMessages[message]=true;var img=new Image;window.emergencyTimeoutImg=img;img.onload=img.onerror=function(){delete window.emergencyTimeoutImg};
var combinedLineAndColumn=err.lineNumber;if(!isNaN(err[""columnNumber""]))combinedLineAndColumn=combinedLineAndColumn+("":""+err[""columnNumber""]);var stack=err.stack||"""";var values={""msg"":message,""type"":err.name,""client.params"":""unhandled window error"",""file"":err.fileName,""line"":combinedLineAndColumn,""stack"":stack.substr(0,500)};var thirdPartyScript=!err.fileName||err.fileName===""<anonymous>""||stack.indexOf(""extension://"")>=0;var replaced=stack.replace(/https:\/\/www.youtube.com\//g,"""");if(replaced.match(/https?:\/\/[^/]+\//))thirdPartyScript=
true;else if(stack.indexOf(""trapProp"")>=0&&stack.indexOf(""trapChain"")>=0)thirdPartyScript=true;else if(message.indexOf(""redefine non-configurable"")>=0)thirdPartyScript=true;var baseUrl=window[""ytcfg""].get(""EMERGENCY_BASE_URL"",""https://www.youtube.com/error_204?t=jserror&level=ERROR"");var unsupported=message.indexOf(""window.customElements is undefined"")>=0;if(thirdPartyScript||unsupported)baseUrl=baseUrl.replace(""level=ERROR"",""level=WARNING"");var parts=[baseUrl];var key;for(key in values){var value=
values[key];if(value)parts.push(key+""=""+encodeURIComponent(value))}img.src=parts.join(""&"")};
(function(){function _getExtendedNativePrototype(tag){var p=this._nativePrototypes[tag];if(!p){p=Object.create(this.getNativePrototype(tag));var p$=Object.getOwnPropertyNames(window[""Polymer""].Base);var i=0;var n=void 0;for(;i<p$.length&&(n=p$[i]);i++)if(!window[""Polymer""].BaseDescriptors[n])try{p[n]=window[""Polymer""].Base[n]}catch(e){throw new Error(""Error while copying property: ""+n+"". Tag is ""+tag);}try{Object.defineProperties(p,window[""Polymer""].BaseDescriptors)}catch(e){throw new Error(""Polymer define property failed for ""+
Object.keys(p));}this._nativePrototypes[tag]=p}return p}function handlePolymerError(msg){window.onerror(msg,window.location.href,0,0,new Error(Array.prototype.join.call(arguments,"","")))}var origPolymer=window[""Polymer""];var newPolymer=function(config){if(!origPolymer._ytIntercepted&&window[""Polymer""].Base){origPolymer._ytIntercepted=true;window[""Polymer""].Base._getExtendedNativePrototype=_getExtendedNativePrototype;window[""Polymer""].Base._error=handlePolymerError;window[""Polymer""].Base._warn=handlePolymerError}return origPolymer.apply(this,
arguments)};var origDescriptor=Object.getOwnPropertyDescriptor(window,""Polymer"");Object.defineProperty(window,""Polymer"",{set:function(p){if(origDescriptor&&origDescriptor.set&&origDescriptor.get){origDescriptor.set(p);origPolymer=origDescriptor.get()}else origPolymer=p;if(typeof origPolymer===""function"")Object.defineProperty(window,""Polymer"",{value:origPolymer,configurable:true,enumerable:true,writable:true})},get:function(){return typeof origPolymer===""function""?newPolymer:origPolymer},configurable:true,
enumerable:true})})();}).call(this);",,,,
Mega menu,For more than 75 years we’ve been building something great in Australia,,,,
Onslow Community Garden,Cnr Simpson St and Third Ave Onslow WA 6710,6710,115.11128059443632,-21.637025156838018,https://communitygarden.org.au/wp-content/uploads/2021/03/Onslow5-520x397.jpg
Darwin and the Top End,"Darwin is located on the northern coast of Australia, in the Northern Territory. This region is often referred to as being the ‘Top End’ of Australia and Darwin is known as a laid back blend of frontier outpost and small modern city.",,,,
Community gardens,unclear,,,,
Logan City Council,"Logan City Council respectfully acknowledges the Traditional Custodians of the lands across the City of Logan. We extend that respect to the Elders, past, present and emerging for they hold the memories, traditions, cultures and hopes of Australia’s First Peoples. Learn more about",,,,
Karen Community Garden Project,Australian Neurofeedback Institute,,,,
Twenty-three new community infrastructure projects for Central Australia,Twenty-three new community infrastructure projects for Central Australia | Ministers for the Department of Infrastructure,,,,
Ballina Community Garden,"Ballina Community Garden | NSW, Australia",,,,
Trump decision to cut AmeriCorps could gut some Pittsburgh-area community groups,Will Australia revisit the deal that led a Pittsburgh firm to depend on the ore beneath its trees?,,,,
Lakeside Drive Community Garden,Lakeside Dr Alawa NT 0810,0810,130.86803953255685,-12.381673155131395,https://communitygarden.org.au/wp-content/uploads/2024/10/Lakeside-drive-CG-520x397.jpg
Community Garden Network Coordinator - Alice Springs,"The Arid Lands Environment Centre is central Australia’s own environmental organisation. ALEC’s vision is for ‘healthy futures for arid lands and people’. ALEC works to protect the environment and support healthy, happy and resilient communities. As part of this work, ALEC established the Alice Springs Community Garden in 2010 and has been successful in securing a grant to support the development of a Community Garden Network through establishing a second community garden in Gillen at Centralian Middle School.",,,,
Care for Hedland Environmental Association,15 Moorambine St Port Hedland WA 6721,6721,118.5882555,-20.3674232,https://communitygarden.org.au/wp-content/uploads/2022/11/care-for-hedland-520x397.jpg
Churchill Fellows Association of the NT,The aim of this project is to visit international community gardening organisations to build an understanding of successful and sustainable approaches that will enable us to create a stronger community garden network across Australia.,,,,
Thinking of starting a community garden?,Australian City Farms and Community Gardens Network,,,,
Broome CIRCLE Verge Community Garden,27 Frederick St Broome WA 6725,6725,122.23940910818095,-17.956275087810578,https://communitygarden.org.au/wp-content/uploads/2022/12/broom-circle-verge-garden-520x397.jpg
Farmers Markets and Community Gardens Locations,"{""@context"":""https://schema.org"",""@graph"":[{""@type"":""WebPage"",""@id"":""https://health-promotion.nnswlhd.health.nsw.gov.au/farmers-markets-and-community-gardens-locations/"",""url"":""https://health-promotion.nnswlhd.health.nsw.gov.au/farmers-markets-and-community-gardens-locations/"",""name"":""Farmers Markets and Community Gardens Locations - Health Promotion"",""isPartOf"":{""@id"":""https://health-promotion.nnswlhd.health.nsw.gov.au/#website""},""datePublished"":""2021-05-26T04:18:41+00:00"",""dateModified"":""2022-08-14T23:43:59+00:00"",""breadcrumb"":{""@id"":""https://health-promotion.nnswlhd.health.nsw.gov.au/farmers-markets-and-community-gardens-locations/#breadcrumb""},""inLanguage"":""en-AU"",""potentialAction"":[{""@type"":""ReadAction"",""target"":[""https://health-promotion.nnswlhd.health.nsw.gov.au/farmers-markets-and-community-gardens-locations/""]}]},{""@type"":""BreadcrumbList"",""@id"":""https://health-promotion.nnswlhd.health.nsw.gov.au/farmers-markets-and-community-gardens-locations/#breadcrumb"",""itemListElement"":[{""@type"":""ListItem"",""position"":1,""name"":""Home"",""item"":""https://health-promotion.nnswlhd.health.nsw.gov.au/""},{""@type"":""ListItem"",""position"":2,""name"":""Farmers Markets and Community Gardens Locations""}]},{""@type"":""WebSite"",""@id"":""https://health-promotion.nnswlhd.health.nsw.gov.au/#website"",""url"":""https://health-promotion.nnswlhd.health.nsw.gov.au/"",""name"":""Health Promotion"",""description"":""Supporting Healthy Living in the Northern Rivers"",""publisher"":{""@id"":""https://health-promotion.nnswlhd.health.nsw.gov.au/#organization""},""potentialAction"":[{""@type"":""SearchAction"",""target"":{""@type"":""EntryPoint"",""urlTemplate"":""https://health-promotion.nnswlhd.health.nsw.gov.au/?s={search_term_string}""},""query-input"":{""@type"":""PropertyValueSpecification"",""valueRequired"":true,""valueName"":""search_term_string""}}],""inLanguage"":""en-AU""},{""@type"":""Organization"",""@id"":""https://health-promotion.nnswlhd.health.nsw.gov.au/#organization"",""name"":""NNSW LHD - Health Promotion"",""url"":""https://health-promotion.nnswlhd.health.nsw.gov.au/"",""logo"":{""@type"":""ImageObject"",""inLanguage"":""en-AU"",""@id"":""https://health-promotion.nnswlhd.health.nsw.gov.au/#/schema/logo/image/"",""url"":""https://health-promotion.nnswlhd.health.nsw.gov.au/wp-content/uploads/2021/06/logo-transparent-blue.png"",""contentUrl"":""https://health-promotion.nnswlhd.health.nsw.gov.au/wp-content/uploads/2021/06/logo-transparent-blue.png"",""width"":500,""height"":129,""caption"":""NNSW LHD - Health Promotion""},""image"":{""@id"":""https://health-promotion.nnswlhd.health.nsw.gov.au/#/schema/logo/image/""},""sameAs"":[""https://www.facebook.com/northernnswlocalhealthdistrict""]}]}",,,,
Connecting,"Growing and Using Local Produce is a community project based in Darwin, Northern Territory.",,,,
Social Growing,Social Growing - Gardening Australia,,,,
a social place to bring people togetherand grow community spirit.,is a part of the West Australian Community Resource Network.,,,,
Community garden produces new business venture,Northern Territory,,-19.8516101,133.2303375,
The Mulch Pit,21 Cummins St Rapid Creek NT 0820,0820,130.8582737,-12.3858795,https://communitygarden.org.au/wp-content/uploads/2021/02/The-Mulch-Pit5-520x397.jpg
Karratha Community Garden,Teesdale Place Millars Well WA 6714,6714,116.81754112243654,-20.74080349452745,https://communitygarden.org.au/wp-content/uploads/2021/11/11828675_842588272504774_124111070395307849_n-520x397.jpg
Gavin Street Community Garden,Gavin St Bundaberg Nth QLD 4670,4670,152.34088,-24.85847,https://communitygarden.org.au/wp-content/uploads/2021/11/2021-05-29.jpg
Community gardens,REDUCE WATER USE,,,,
YVW boosting community irrigation,South East Water celebrates AWA recognition,,,,
Community gardens and food groups,Sustainable Gardening Australia website,,,,
Quick links,English (Australia),,-26.6273811,152.9667782,
Laneway Community Garden | Discovery | Gardening Australia - YouTube,"(function(){window.yterr=window.yterr||true;window.unhandledErrorMessages={};window.unhandledErrorCount=0;
window.onerror=function(msg,url,line,columnNumber,error){var err;if(error)err=error;else{err=new Error;err.stack="""";err.message=msg;err.fileName=url;err.lineNumber=line;if(!isNaN(columnNumber))err[""columnNumber""]=columnNumber}var message=String(err.message);if(!err.message||message in window.unhandledErrorMessages||window.unhandledErrorCount>=5)return;window.unhandledErrorCount+=1;window.unhandledErrorMessages[message]=true;var img=new Image;window.emergencyTimeoutImg=img;img.onload=img.onerror=function(){delete window.emergencyTimeoutImg};
var combinedLineAndColumn=err.lineNumber;if(!isNaN(err[""columnNumber""]))combinedLineAndColumn=combinedLineAndColumn+("":""+err[""columnNumber""]);var stack=err.stack||"""";var values={""msg"":message,""type"":err.name,""client.params"":""unhandled window error"",""file"":err.fileName,""line"":combinedLineAndColumn,""stack"":stack.substr(0,500)};var thirdPartyScript=!err.fileName||err.fileName===""<anonymous>""||stack.indexOf(""extension://"")>=0;var replaced=stack.replace(/https:\/\/www.youtube.com\//g,"""");if(replaced.match(/https?:\/\/[^/]+\//))thirdPartyScript=
true;else if(stack.indexOf(""trapProp"")>=0&&stack.indexOf(""trapChain"")>=0)thirdPartyScript=true;else if(message.indexOf(""redefine non-configurable"")>=0)thirdPartyScript=true;var baseUrl=window[""ytcfg""].get(""EMERGENCY_BASE_URL"",""https://www.youtube.com/error_204?t=jserror&level=ERROR"");var unsupported=message.indexOf(""window.customElements is undefined"")>=0;if(thirdPartyScript||unsupported)baseUrl=baseUrl.replace(""level=ERROR"",""level=WARNING"");var parts=[baseUrl];var key;for(key in values){var value=
values[key];if(value)parts.push(key+""=""+encodeURIComponent(value))}img.src=parts.join(""&"")};
(function(){function _getExtendedNativePrototype(tag){var p=this._nativePrototypes[tag];if(!p){p=Object.create(this.getNativePrototype(tag));var p$=Object.getOwnPropertyNames(window[""Polymer""].Base);var i=0;var n=void 0;for(;i<p$.length&&(n=p$[i]);i++)if(!window[""Polymer""].BaseDescriptors[n])try{p[n]=window[""Polymer""].Base[n]}catch(e){throw new Error(""Error while copying property: ""+n+"". Tag is ""+tag);}try{Object.defineProperties(p,window[""Polymer""].BaseDescriptors)}catch(e){throw new Error(""Polymer define property failed for ""+
Object.keys(p));}this._nativePrototypes[tag]=p}return p}function handlePolymerError(msg){window.onerror(msg,window.location.href,0,0,new Error(Array.prototype.join.call(arguments,"","")))}var origPolymer=window[""Polymer""];var newPolymer=function(config){if(!origPolymer._ytIntercepted&&window[""Polymer""].Base){origPolymer._ytIntercepted=true;window[""Polymer""].Base._getExtendedNativePrototype=_getExtendedNativePrototype;window[""Polymer""].Base._error=handlePolymerError;window[""Polymer""].Base._warn=handlePolymerError}return origPolymer.apply(this,
arguments)};var origDescriptor=Object.getOwnPropertyDescriptor(window,""Polymer"");Object.defineProperty(window,""Polymer"",{set:function(p){if(origDescriptor&&origDescriptor.set&&origDescriptor.get){origDescriptor.set(p);origPolymer=origDescriptor.get()}else origPolymer=p;if(typeof origPolymer===""function"")Object.defineProperty(window,""Polymer"",{value:origPolymer,configurable:true,enumerable:true,writable:true})},get:function(){return typeof origPolymer===""function""?newPolymer:origPolymer},configurable:true,
enumerable:true})})();}).call(this);",,,,
Armstrong Street Community Garden,60 Armstrong St Berserker QLD 4701,4701,150.52253924069288,-23.367669374790104,https://communitygarden.org.au/wp-content/uploads/2021/03/Armstrong1-520x397.jpg
The Benefits of Community Gardens,Sustain The Australian Food Network,,,,
"Community gardens and their effects on diet, health, psychosocial and community outcomes: a systematic review","School of Public Health, University of Adelaide, Adelaide, 5000, Australia. clare.hume@adelaide.edu.au.",,,,
​Avondale Heights​Community Garden,unclear,,,,
Harvest Corner – Gray Community Garden,"Corner Essington Ave & Wright Cres, Gray, Palmerston NT 0830",0830,130.981520341113,-12.48927441010771,https://communitygarden.org.au/wp-content/uploads/2021/03/harvest-corner3-520x225.jpg
Victory garden,Australia,,-24.7761086,134.755,
Community Gardens Australia NT,Community Gardens Australia NT,,,,
The legacy behind a trackside garden in Melbourne's north | Garden Inspiration | Gardening Australia - YouTube,"(function(){window.yterr=window.yterr||true;window.unhandledErrorMessages={};window.unhandledErrorCount=0;
window.onerror=function(msg,url,line,columnNumber,error){var err;if(error)err=error;else{err=new Error;err.stack="""";err.message=msg;err.fileName=url;err.lineNumber=line;if(!isNaN(columnNumber))err[""columnNumber""]=columnNumber}var message=String(err.message);if(!err.message||message in window.unhandledErrorMessages||window.unhandledErrorCount>=5)return;window.unhandledErrorCount+=1;window.unhandledErrorMessages[message]=true;var img=new Image;window.emergencyTimeoutImg=img;img.onload=img.onerror=function(){delete window.emergencyTimeoutImg};
var combinedLineAndColumn=err.lineNumber;if(!isNaN(err[""columnNumber""]))combinedLineAndColumn=combinedLineAndColumn+("":""+err[""columnNumber""]);var stack=err.stack||"""";var values={""msg"":message,""type"":err.name,""client.params"":""unhandled window error"",""file"":err.fileName,""line"":combinedLineAndColumn,""stack"":stack.substr(0,500)};var thirdPartyScript=!err.fileName||err.fileName===""<anonymous>""||stack.indexOf(""extension://"")>=0;var replaced=stack.replace(/https:\/\/www.youtube.com\//g,"""");if(replaced.match(/https?:\/\/[^/]+\//))thirdPartyScript=
true;else if(stack.indexOf(""trapProp"")>=0&&stack.indexOf(""trapChain"")>=0)thirdPartyScript=true;else if(message.indexOf(""redefine non-configurable"")>=0)thirdPartyScript=true;var baseUrl=window[""ytcfg""].get(""EMERGENCY_BASE_URL"",""https://www.youtube.com/error_204?t=jserror&level=ERROR"");var unsupported=message.indexOf(""window.customElements is undefined"")>=0;if(thirdPartyScript||unsupported)baseUrl=baseUrl.replace(""level=ERROR"",""level=WARNING"");var parts=[baseUrl];var key;for(key in values){var value=
values[key];if(value)parts.push(key+""=""+encodeURIComponent(value))}img.src=parts.join(""&"")};
(function(){function _getExtendedNativePrototype(tag){var p=this._nativePrototypes[tag];if(!p){p=Object.create(this.getNativePrototype(tag));var p$=Object.getOwnPropertyNames(window[""Polymer""].Base);var i=0;var n=void 0;for(;i<p$.length&&(n=p$[i]);i++)if(!window[""Polymer""].BaseDescriptors[n])try{p[n]=window[""Polymer""].Base[n]}catch(e){throw new Error(""Error while copying property: ""+n+"". Tag is ""+tag);}try{Object.defineProperties(p,window[""Polymer""].BaseDescriptors)}catch(e){throw new Error(""Polymer define property failed for ""+
Object.keys(p));}this._nativePrototypes[tag]=p}return p}function handlePolymerError(msg){window.onerror(msg,window.location.href,0,0,new Error(Array.prototype.join.call(arguments,"","")))}var origPolymer=window[""Polymer""];var newPolymer=function(config){if(!origPolymer._ytIntercepted&&window[""Polymer""].Base){origPolymer._ytIntercepted=true;window[""Polymer""].Base._getExtendedNativePrototype=_getExtendedNativePrototype;window[""Polymer""].Base._error=handlePolymerError;window[""Polymer""].Base._warn=handlePolymerError}return origPolymer.apply(this,
arguments)};var origDescriptor=Object.getOwnPropertyDescriptor(window,""Polymer"");Object.defineProperty(window,""Polymer"",{set:function(p){if(origDescriptor&&origDescriptor.set&&origDescriptor.get){origDescriptor.set(p);origPolymer=origDescriptor.get()}else origPolymer=p;if(typeof origPolymer===""function"")Object.defineProperty(window,""Polymer"",{value:origPolymer,configurable:true,enumerable:true,writable:true})},get:function(){return typeof origPolymer===""function""?newPolymer:origPolymer},configurable:true,
enumerable:true})})();}).call(this);",,,,
Community Gardens Australia(@communitygardensaustralia) • Instagram 사진 및 동영상,Community Gardens Australia(@communitygardensaustralia) • Instagram 사진 및 동영상,,,,
Community Garden Bring and Share Dinner and General Meeting,"Community Garden Bring and Share Dinner and General Meeting, Wuyal Rd, Nhulunbuy NT 0880, Australia, Nhulunbuy, NT, Australia, Katherine East, 23 March 2025 | AllEvents",,,,
Growing vegies and friendships in a productive community garden | Gardening Australia - YouTube,"(function(){window.yterr=window.yterr||true;window.unhandledErrorMessages={};window.unhandledErrorCount=0;
window.onerror=function(msg,url,line,columnNumber,error){var err;if(error)err=error;else{err=new Error;err.stack="""";err.message=msg;err.fileName=url;err.lineNumber=line;if(!isNaN(columnNumber))err[""columnNumber""]=columnNumber}var message=String(err.message);if(!err.message||message in window.unhandledErrorMessages||window.unhandledErrorCount>=5)return;window.unhandledErrorCount+=1;window.unhandledErrorMessages[message]=true;var img=new Image;window.emergencyTimeoutImg=img;img.onload=img.onerror=function(){delete window.emergencyTimeoutImg};
var combinedLineAndColumn=err.lineNumber;if(!isNaN(err[""columnNumber""]))combinedLineAndColumn=combinedLineAndColumn+("":""+err[""columnNumber""]);var stack=err.stack||"""";var values={""msg"":message,""type"":err.name,""client.params"":""unhandled window error"",""file"":err.fileName,""line"":combinedLineAndColumn,""stack"":stack.substr(0,500)};var thirdPartyScript=!err.fileName||err.fileName===""<anonymous>""||stack.indexOf(""extension://"")>=0;var replaced=stack.replace(/https:\/\/www.youtube.com\//g,"""");if(replaced.match(/https?:\/\/[^/]+\//))thirdPartyScript=
true;else if(stack.indexOf(""trapProp"")>=0&&stack.indexOf(""trapChain"")>=0)thirdPartyScript=true;else if(message.indexOf(""redefine non-configurable"")>=0)thirdPartyScript=true;var baseUrl=window[""ytcfg""].get(""EMERGENCY_BASE_URL"",""https://www.youtube.com/error_204?t=jserror&level=ERROR"");var unsupported=message.indexOf(""window.customElements is undefined"")>=0;if(thirdPartyScript||unsupported)baseUrl=baseUrl.replace(""level=ERROR"",""level=WARNING"");var parts=[baseUrl];var key;for(key in values){var value=
values[key];if(value)parts.push(key+""=""+encodeURIComponent(value))}img.src=parts.join(""&"")};
(function(){function _getExtendedNativePrototype(tag){var p=this._nativePrototypes[tag];if(!p){p=Object.create(this.getNativePrototype(tag));var p$=Object.getOwnPropertyNames(window[""Polymer""].Base);var i=0;var n=void 0;for(;i<p$.length&&(n=p$[i]);i++)if(!window[""Polymer""].BaseDescriptors[n])try{p[n]=window[""Polymer""].Base[n]}catch(e){throw new Error(""Error while copying property: ""+n+"". Tag is ""+tag);}try{Object.defineProperties(p,window[""Polymer""].BaseDescriptors)}catch(e){throw new Error(""Polymer define property failed for ""+
Object.keys(p));}this._nativePrototypes[tag]=p}return p}function handlePolymerError(msg){window.onerror(msg,window.location.href,0,0,new Error(Array.prototype.join.call(arguments,"","")))}var origPolymer=window[""Polymer""];var newPolymer=function(config){if(!origPolymer._ytIntercepted&&window[""Polymer""].Base){origPolymer._ytIntercepted=true;window[""Polymer""].Base._getExtendedNativePrototype=_getExtendedNativePrototype;window[""Polymer""].Base._error=handlePolymerError;window[""Polymer""].Base._warn=handlePolymerError}return origPolymer.apply(this,
arguments)};var origDescriptor=Object.getOwnPropertyDescriptor(window,""Polymer"");Object.defineProperty(window,""Polymer"",{set:function(p){if(origDescriptor&&origDescriptor.set&&origDescriptor.get){origDescriptor.set(p);origPolymer=origDescriptor.get()}else origPolymer=p;if(typeof origPolymer===""function"")Object.defineProperty(window,""Polymer"",{value:origPolymer,configurable:true,enumerable:true,writable:true})},get:function(){return typeof origPolymer===""function""?newPolymer:origPolymer},configurable:true,
enumerable:true})})();}).call(this);",,,,
Horizon Power interns energise industry,"{""@context"":""https://schema.org"",""@graph"":[{""@type"":""Article"",""@id"":""https://utilitymagazine.com.au/horizon-power-interns-energise-industry/#article"",""isPartOf"":{""@id"":""https://utilitymagazine.com.au/horizon-power-interns-energise-industry/""},""author"":{""name"":""Sarah MacNamara"",""@id"":""https://utilitymagazine.com.au/#/schema/person/404535316f360786ad86b0c93a95b66d""},""headline"":""Horizon Power interns energise industry"",""datePublished"":""2025-05-23T05:48:32+00:00"",""mainEntityOfPage"":{""@id"":""https://utilitymagazine.com.au/horizon-power-interns-energise-industry/""},""wordCount"":851,""publisher"":{""@id"":""https://utilitymagazine.com.au/#organization""},""image"":{""@id"":""https://utilitymagazine.com.au/horizon-power-interns-energise-industry/#primaryimage""},""thumbnailUrl"":""https://utilitymagazine.com.au/wp-content/uploads/2025/05/Horizon-Power-image-1-Large.jpeg"",""articleSection"":[""Electricity"",""News"",""People and appointments"",""Projects"",""Renewable Energy"",""Retail"",""Safety and Training""],""inLanguage"":""en-US""},{""@type"":""WebPage"",""@id"":""https://utilitymagazine.com.au/horizon-power-interns-energise-industry/"",""url"":""https://utilitymagazine.com.au/horizon-power-interns-energise-industry/"",""name"":""Horizon Power interns energise industry - Utility Magazine"",""isPartOf"":{""@id"":""https://utilitymagazine.com.au/#website""},""primaryImageOfPage"":{""@id"":""https://utilitymagazine.com.au/horizon-power-interns-energise-industry/#primaryimage""},""image"":{""@id"":""https://utilitymagazine.com.au/horizon-power-interns-energise-industry/#primaryimage""},""thumbnailUrl"":""https://utilitymagazine.com.au/wp-content/uploads/2025/05/Horizon-Power-image-1-Large.jpeg"",""datePublished"":""2025-05-23T05:48:32+00:00"",""description"":""The WA energy sector has gained three new passionate interns thanks to a program linking Aboriginal uni students to paid opportunities. "",""breadcrumb"":{""@id"":""https://utilitymagazine.com.au/horizon-power-interns-energise-industry/#breadcrumb""},""inLanguage"":""en-US"",""potentialAction"":[{""@type"":""ReadAction"",""target"":[""https://utilitymagazine.com.au/horizon-power-interns-energise-industry/""]}]},{""@type"":""ImageObject"",""inLanguage"":""en-US"",""@id"":""https://utilitymagazine.com.au/horizon-power-interns-energise-industry/#primaryimage"",""url"":""https://utilitymagazine.com.au/wp-content/uploads/2025/05/Horizon-Power-image-1-Large.jpeg"",""contentUrl"":""https://utilitymagazine.com.au/wp-content/uploads/2025/05/Horizon-Power-image-1-Large.jpeg"",""width"":1280,""height"":853,""caption"":""Matthew Harris, Gordon Naley and Tiarnee Lester, have made the leap from interns to employees at WA’s regional energy provider. Image: Horizon Power""},{""@type"":""BreadcrumbList"",""@id"":""https://utilitymagazine.com.au/horizon-power-interns-energise-industry/#breadcrumb"",""itemListElement"":[{""@type"":""ListItem"",""position"":1,""name"":""Home"",""item"":""https://utilitymagazine.com.au/""},{""@type"":""ListItem"",""position"":2,""name"":""Horizon Power interns energise industry""}]},{""@type"":""WebSite"",""@id"":""https://utilitymagazine.com.au/#website"",""url"":""https://utilitymagazine.com.au/"",""name"":""Utility Magazine"",""description"":""Utility engineering, construction &amp; maintenance"",""publisher"":{""@id"":""https://utilitymagazine.com.au/#organization""},""potentialAction"":[{""@type"":""SearchAction"",""target"":{""@type"":""EntryPoint"",""urlTemplate"":""https://utilitymagazine.com.au/?s={search_term_string}""},""query-input"":{""@type"":""PropertyValueSpecification"",""valueRequired"":true,""valueName"":""search_term_string""}}],""inLanguage"":""en-US""},{""@type"":""Organization"",""@id"":""https://utilitymagazine.com.au/#organization"",""name"":""Utility Magazine"",""url"":""https://utilitymagazine.com.au/"",""logo"":{""@type"":""ImageObject"",""inLanguage"":""en-US"",""@id"":""https://utilitymagazine.com.au/#/schema/logo/image/"",""url"":""https://utilitymagazine.com.au/wp-content/uploads/2019/04/Utility_magazine-shadow-800px.png"",""contentUrl"":""https://utilitymagazine.com.au/wp-content/uploads/2019/04/Utility_magazine-shadow-800px.png"",""width"":800,""height"":325,""caption"":""Utility Magazine""},""image"":{""@id"":""https://utilitymagazine.com.au/#/schema/logo/image/""}},{""@type"":""Person"",""@id"":""https://utilitymagazine.com.au/#/schema/person/404535316f360786ad86b0c93a95b66d"",""name"":""Sarah MacNamara"",""image"":{""@type"":""ImageObject"",""inLanguage"":""en-US"",""@id"":""https://utilitymagazine.com.au/#/schema/person/image/"",""url"":""https://secure.gravatar.com/avatar/37f0398966e9f002294f4aaee67e3ef0?s=96&d=mm&r=g"",""contentUrl"":""https://secure.gravatar.com/avatar/37f0398966e9f002294f4aaee67e3ef0?s=96&d=mm&r=g"",""caption"":""Sarah MacNamara""}}]}",,,,
Masontown Community Garden celebrates launch at Preston County Youth Center,Northern Mariana Islands,,15.1753648,145.7379338,
Exploring Brisbane’s Epicurious Garden: A Foodie’s Paradise! - YouTube,"(function(){window.yterr=window.yterr||true;window.unhandledErrorMessages={};window.unhandledErrorCount=0;
window.onerror=function(msg,url,line,columnNumber,error){var err;if(error)err=error;else{err=new Error;err.stack="""";err.message=msg;err.fileName=url;err.lineNumber=line;if(!isNaN(columnNumber))err[""columnNumber""]=columnNumber}var message=String(err.message);if(!err.message||message in window.unhandledErrorMessages||window.unhandledErrorCount>=5)return;window.unhandledErrorCount+=1;window.unhandledErrorMessages[message]=true;var img=new Image;window.emergencyTimeoutImg=img;img.onload=img.onerror=function(){delete window.emergencyTimeoutImg};
var combinedLineAndColumn=err.lineNumber;if(!isNaN(err[""columnNumber""]))combinedLineAndColumn=combinedLineAndColumn+("":""+err[""columnNumber""]);var stack=err.stack||"""";var values={""msg"":message,""type"":err.name,""client.params"":""unhandled window error"",""file"":err.fileName,""line"":combinedLineAndColumn,""stack"":stack.substr(0,500)};var thirdPartyScript=!err.fileName||err.fileName===""<anonymous>""||stack.indexOf(""extension://"")>=0;var replaced=stack.replace(/https:\/\/www.youtube.com\//g,"""");if(replaced.match(/https?:\/\/[^/]+\//))thirdPartyScript=
true;else if(stack.indexOf(""trapProp"")>=0&&stack.indexOf(""trapChain"")>=0)thirdPartyScript=true;else if(message.indexOf(""redefine non-configurable"")>=0)thirdPartyScript=true;var baseUrl=window[""ytcfg""].get(""EMERGENCY_BASE_URL"",""https://www.youtube.com/error_204?t=jserror&level=ERROR"");var unsupported=message.indexOf(""window.customElements is undefined"")>=0;if(thirdPartyScript||unsupported)baseUrl=baseUrl.replace(""level=ERROR"",""level=WARNING"");var parts=[baseUrl];var key;for(key in values){var value=
values[key];if(value)parts.push(key+""=""+encodeURIComponent(value))}img.src=parts.join(""&"")};
(function(){function _getExtendedNativePrototype(tag){var p=this._nativePrototypes[tag];if(!p){p=Object.create(this.getNativePrototype(tag));var p$=Object.getOwnPropertyNames(window[""Polymer""].Base);var i=0;var n=void 0;for(;i<p$.length&&(n=p$[i]);i++)if(!window[""Polymer""].BaseDescriptors[n])try{p[n]=window[""Polymer""].Base[n]}catch(e){throw new Error(""Error while copying property: ""+n+"". Tag is ""+tag);}try{Object.defineProperties(p,window[""Polymer""].BaseDescriptors)}catch(e){throw new Error(""Polymer define property failed for ""+
Object.keys(p));}this._nativePrototypes[tag]=p}return p}function handlePolymerError(msg){window.onerror(msg,window.location.href,0,0,new Error(Array.prototype.join.call(arguments,"","")))}var origPolymer=window[""Polymer""];var newPolymer=function(config){if(!origPolymer._ytIntercepted&&window[""Polymer""].Base){origPolymer._ytIntercepted=true;window[""Polymer""].Base._getExtendedNativePrototype=_getExtendedNativePrototype;window[""Polymer""].Base._error=handlePolymerError;window[""Polymer""].Base._warn=handlePolymerError}return origPolymer.apply(this,
arguments)};var origDescriptor=Object.getOwnPropertyDescriptor(window,""Polymer"");Object.defineProperty(window,""Polymer"",{set:function(p){if(origDescriptor&&origDescriptor.set&&origDescriptor.get){origDescriptor.set(p);origPolymer=origDescriptor.get()}else origPolymer=p;if(typeof origPolymer===""function"")Object.defineProperty(window,""Polymer"",{value:origPolymer,configurable:true,enumerable:true,writable:true})},get:function(){return typeof origPolymer===""function""?newPolymer:origPolymer},configurable:true,
enumerable:true})})();}).call(this);",,,,
GULP Top End Planting Calendar,"Growing and Using Local Produce is a community project based in Darwin, Northern Territory.",,,,
Linde Community Garden,Australian Citizenship,,-35.290485,149.1331246,
